{
"type": "FeatureCollection",
"name": "location_velo_in_festival",
"crs": { "type": "name", "properties": { "name": "urn:ogc:def:crs:OGC:1.3:CRS84" } },
"features": [
{ "type": "Feature", "properties": { "fid": 81, "addr:street": "Rue de la Cochardière", "amenity": "bicycle_rental", "capacity": "26", "name": "Hôtel Dieu", "nom_festival": "Festival agrock" }, "geometry": { "type": "Point", "coordinates": [ -1.677851, 48.117596 ] } },
{ "type": "Feature", "properties": { "fid": 81, "addr:street": "Rue de la Cochardière", "amenity": "bicycle_rental", "capacity": "26", "name": "Hôtel Dieu", "nom_festival": "Big love" }, "geometry": { "type": "Point", "coordinates": [ -1.677851, 48.117596 ] } },
{ "type": "Feature", "properties": { "fid": 81, "addr:street": "Rue de la Cochardière", "amenity": "bicycle_rental", "capacity": "26", "name": "Hôtel Dieu", "nom_festival": "Sevenadur" }, "geometry": { "type": "Point", "coordinates": [ -1.677851, 48.117596 ] } },
{ "type": "Feature", "properties": { "fid": 81, "addr:street": "Rue de la Cochardière", "amenity": "bicycle_rental", "capacity": "26", "name": "Hôtel Dieu", "nom_festival": "Les rencontres trans musicales de rennes" }, "geometry": { "type": "Point", "coordinates": [ -1.677851, 48.117596 ] } },
{ "type": "Feature", "properties": { "fid": 81, "addr:street": "Rue de la Cochardière", "amenity": "bicycle_rental", "capacity": "26", "name": "Hôtel Dieu", "nom_festival": "Transat en ville" }, "geometry": { "type": "Point", "coordinates": [ -1.677851, 48.117596 ] } },
{ "type": "Feature", "properties": { "fid": 81, "addr:street": "Rue de la Cochardière", "amenity": "bicycle_rental", "capacity": "26", "name": "Hôtel Dieu", "nom_festival": "Festival yaouank" }, "geometry": { "type": "Point", "coordinates": [ -1.677851, 48.117596 ] } },
{ "type": "Feature", "properties": { "fid": 81, "addr:street": "Rue de la Cochardière", "amenity": "bicycle_rental", "capacity": "26", "name": "Hôtel Dieu", "nom_festival": "Jardins d'hiver" }, "geometry": { "type": "Point", "coordinates": [ -1.677851, 48.117596 ] } },
{ "type": "Feature", "properties": { "fid": 81, "addr:street": "Rue de la Cochardière", "amenity": "bicycle_rental", "capacity": "26", "name": "Hôtel Dieu", "nom_festival": "Le grand soufflet" }, "geometry": { "type": "Point", "coordinates": [ -1.677851, 48.117596 ] } },
{ "type": "Feature", "properties": { "fid": 81, "addr:street": "Rue de la Cochardière", "amenity": "bicycle_rental", "capacity": "26", "name": "Hôtel Dieu", "nom_festival": "Marmaille" }, "geometry": { "type": "Point", "coordinates": [ -1.677851, 48.117596 ] } },
{ "type": "Feature", "properties": { "fid": 81, "addr:street": "Rue de la Cochardière", "amenity": "bicycle_rental", "capacity": "26", "name": "Hôtel Dieu", "nom_festival": "Festival rue des livres" }, "geometry": { "type": "Point", "coordinates": [ -1.677851, 48.117596 ] } },
{ "type": "Feature", "properties": { "fid": 81, "addr:street": "Rue de la Cochardière", "amenity": "bicycle_rental", "capacity": "26", "name": "Hôtel Dieu", "nom_festival": "Mythos" }, "geometry": { "type": "Point", "coordinates": [ -1.677851, 48.117596 ] } },
{ "type": "Feature", "properties": { "fid": 81, "addr:street": "Rue de la Cochardière", "amenity": "bicycle_rental", "capacity": "26", "name": "Hôtel Dieu", "nom_festival": "Festival tnb" }, "geometry": { "type": "Point", "coordinates": [ -1.677851, 48.117596 ] } },
{ "type": "Feature", "properties": { "fid": 81, "addr:street": "Rue de la Cochardière", "amenity": "bicycle_rental", "capacity": "26", "name": "Hôtel Dieu", "nom_festival": "Les tombees de la nuit" }, "geometry": { "type": "Point", "coordinates": [ -1.677851, 48.117596 ] } },
{ "type": "Feature", "properties": { "fid": 81, "addr:street": "Rue de la Cochardière", "amenity": "bicycle_rental", "capacity": "26", "name": "Hôtel Dieu", "nom_festival": "I'm from rennes (site du thabord)" }, "geometry": { "type": "Point", "coordinates": [ -1.677851, 48.117596 ] } },
{ "type": "Feature", "properties": { "fid": 81, "addr:street": "Rue de la Cochardière", "amenity": "bicycle_rental", "capacity": "26", "name": "Hôtel Dieu", "nom_festival": "Made festival" }, "geometry": { "type": "Point", "coordinates": [ -1.677851, 48.117596 ] } },
{ "type": "Feature", "properties": { "fid": 82, "addr:street": "Avenue Aristide Briand", "amenity": "bicycle_rental", "capacity": "16", "name": "Paul Bert", "nom_festival": "Les rencontres trans musicales de rennes" }, "geometry": { "type": "Point", "coordinates": [ -1.670039, 48.110115 ] } },
{ "type": "Feature", "properties": { "fid": 82, "addr:street": "Avenue Aristide Briand", "amenity": "bicycle_rental", "capacity": "16", "name": "Paul Bert", "nom_festival": "Transat en ville" }, "geometry": { "type": "Point", "coordinates": [ -1.670039, 48.110115 ] } },
{ "type": "Feature", "properties": { "fid": 82, "addr:street": "Avenue Aristide Briand", "amenity": "bicycle_rental", "capacity": "16", "name": "Paul Bert", "nom_festival": "Jardins d'hiver" }, "geometry": { "type": "Point", "coordinates": [ -1.670039, 48.110115 ] } },
{ "type": "Feature", "properties": { "fid": 82, "addr:street": "Avenue Aristide Briand", "amenity": "bicycle_rental", "capacity": "16", "name": "Paul Bert", "nom_festival": "Le grand soufflet" }, "geometry": { "type": "Point", "coordinates": [ -1.670039, 48.110115 ] } },
{ "type": "Feature", "properties": { "fid": 82, "addr:street": "Avenue Aristide Briand", "amenity": "bicycle_rental", "capacity": "16", "name": "Paul Bert", "nom_festival": "Festival rue des livres" }, "geometry": { "type": "Point", "coordinates": [ -1.670039, 48.110115 ] } },
{ "type": "Feature", "properties": { "fid": 82, "addr:street": "Avenue Aristide Briand", "amenity": "bicycle_rental", "capacity": "16", "name": "Paul Bert", "nom_festival": "Mythos" }, "geometry": { "type": "Point", "coordinates": [ -1.670039, 48.110115 ] } },
{ "type": "Feature", "properties": { "fid": 82, "addr:street": "Avenue Aristide Briand", "amenity": "bicycle_rental", "capacity": "16", "name": "Paul Bert", "nom_festival": "Festival tnb" }, "geometry": { "type": "Point", "coordinates": [ -1.670039, 48.110115 ] } },
{ "type": "Feature", "properties": { "fid": 82, "addr:street": "Avenue Aristide Briand", "amenity": "bicycle_rental", "capacity": "16", "name": "Paul Bert", "nom_festival": "Les tombees de la nuit" }, "geometry": { "type": "Point", "coordinates": [ -1.670039, 48.110115 ] } },
{ "type": "Feature", "properties": { "fid": 82, "addr:street": "Avenue Aristide Briand", "amenity": "bicycle_rental", "capacity": "16", "name": "Paul Bert", "nom_festival": "I'm from rennes (site du thabord)" }, "geometry": { "type": "Point", "coordinates": [ -1.670039, 48.110115 ] } },
{ "type": "Feature", "properties": { "fid": 82, "addr:street": "Avenue Aristide Briand", "amenity": "bicycle_rental", "capacity": "16", "name": "Paul Bert", "nom_festival": "Made festival" }, "geometry": { "type": "Point", "coordinates": [ -1.670039, 48.110115 ] } },
{ "type": "Feature", "properties": { "fid": 83, "addr:street": "Galerie du Théâtre", "amenity": "bicycle_rental", "capacity": "24", "name": "Mairie - Opéra", "nom_festival": "Festival agrock" }, "geometry": { "type": "Point", "coordinates": [ -1.6787575, 48.1116088 ] } },
{ "type": "Feature", "properties": { "fid": 83, "addr:street": "Galerie du Théâtre", "amenity": "bicycle_rental", "capacity": "24", "name": "Mairie - Opéra", "nom_festival": "Sevenadur" }, "geometry": { "type": "Point", "coordinates": [ -1.6787575, 48.1116088 ] } },
{ "type": "Feature", "properties": { "fid": 83, "addr:street": "Galerie du Théâtre", "amenity": "bicycle_rental", "capacity": "24", "name": "Mairie - Opéra", "nom_festival": "Les rencontres trans musicales de rennes" }, "geometry": { "type": "Point", "coordinates": [ -1.6787575, 48.1116088 ] } },
{ "type": "Feature", "properties": { "fid": 83, "addr:street": "Galerie du Théâtre", "amenity": "bicycle_rental", "capacity": "24", "name": "Mairie - Opéra", "nom_festival": "Transat en ville" }, "geometry": { "type": "Point", "coordinates": [ -1.6787575, 48.1116088 ] } },
{ "type": "Feature", "properties": { "fid": 83, "addr:street": "Galerie du Théâtre", "amenity": "bicycle_rental", "capacity": "24", "name": "Mairie - Opéra", "nom_festival": "Jardins d'hiver" }, "geometry": { "type": "Point", "coordinates": [ -1.6787575, 48.1116088 ] } },
{ "type": "Feature", "properties": { "fid": 83, "addr:street": "Galerie du Théâtre", "amenity": "bicycle_rental", "capacity": "24", "name": "Mairie - Opéra", "nom_festival": "Le grand soufflet" }, "geometry": { "type": "Point", "coordinates": [ -1.6787575, 48.1116088 ] } },
{ "type": "Feature", "properties": { "fid": 83, "addr:street": "Galerie du Théâtre", "amenity": "bicycle_rental", "capacity": "24", "name": "Mairie - Opéra", "nom_festival": "Festival rue des livres" }, "geometry": { "type": "Point", "coordinates": [ -1.6787575, 48.1116088 ] } },
{ "type": "Feature", "properties": { "fid": 83, "addr:street": "Galerie du Théâtre", "amenity": "bicycle_rental", "capacity": "24", "name": "Mairie - Opéra", "nom_festival": "Mythos" }, "geometry": { "type": "Point", "coordinates": [ -1.6787575, 48.1116088 ] } },
{ "type": "Feature", "properties": { "fid": 83, "addr:street": "Galerie du Théâtre", "amenity": "bicycle_rental", "capacity": "24", "name": "Mairie - Opéra", "nom_festival": "Festival tnb" }, "geometry": { "type": "Point", "coordinates": [ -1.6787575, 48.1116088 ] } },
{ "type": "Feature", "properties": { "fid": 83, "addr:street": "Galerie du Théâtre", "amenity": "bicycle_rental", "capacity": "24", "name": "Mairie - Opéra", "nom_festival": "Les tombees de la nuit" }, "geometry": { "type": "Point", "coordinates": [ -1.6787575, 48.1116088 ] } },
{ "type": "Feature", "properties": { "fid": 83, "addr:street": "Galerie du Théâtre", "amenity": "bicycle_rental", "capacity": "24", "name": "Mairie - Opéra", "nom_festival": "I'm from rennes (site du thabord)" }, "geometry": { "type": "Point", "coordinates": [ -1.6787575, 48.1116088 ] } },
{ "type": "Feature", "properties": { "fid": 83, "addr:street": "Galerie du Théâtre", "amenity": "bicycle_rental", "capacity": "24", "name": "Mairie - Opéra", "nom_festival": "Made festival" }, "geometry": { "type": "Point", "coordinates": [ -1.6787575, 48.1116088 ] } },
{ "type": "Feature", "properties": { "fid": 84, "addr:street": "Avenue François Château", "amenity": "bicycle_rental", "capacity": "24", "name": "Plaine de Baud", "nom_festival": "Marmaille" }, "geometry": { "type": "Point", "coordinates": [ -1.6439248, 48.1124997 ] } },
{ "type": "Feature", "properties": { "fid": 84, "addr:street": "Avenue François Château", "amenity": "bicycle_rental", "capacity": "24", "name": "Plaine de Baud", "nom_festival": "Rock'n solex" }, "geometry": { "type": "Point", "coordinates": [ -1.6439248, 48.1124997 ] } },
{ "type": "Feature", "properties": { "fid": 84, "addr:street": "Avenue François Château", "amenity": "bicycle_rental", "capacity": "24", "name": "Plaine de Baud", "nom_festival": "Festival rue des livres" }, "geometry": { "type": "Point", "coordinates": [ -1.6439248, 48.1124997 ] } },
{ "type": "Feature", "properties": { "fid": 84, "addr:street": "Avenue François Château", "amenity": "bicycle_rental", "capacity": "24", "name": "Plaine de Baud", "nom_festival": "Mythos" }, "geometry": { "type": "Point", "coordinates": [ -1.6439248, 48.1124997 ] } },
{ "type": "Feature", "properties": { "fid": 85, "addr:street": "Rue de Saint-Malo", "amenity": "bicycle_rental", "capacity": "30", "name": "Auberge de Jeunesse", "nom_festival": "Festival agrock" }, "geometry": { "type": "Point", "coordinates": [ -1.6818214, 48.1208367 ] } },
{ "type": "Feature", "properties": { "fid": 85, "addr:street": "Rue de Saint-Malo", "amenity": "bicycle_rental", "capacity": "30", "name": "Auberge de Jeunesse", "nom_festival": "Big love" }, "geometry": { "type": "Point", "coordinates": [ -1.6818214, 48.1208367 ] } },
{ "type": "Feature", "properties": { "fid": 85, "addr:street": "Rue de Saint-Malo", "amenity": "bicycle_rental", "capacity": "30", "name": "Auberge de Jeunesse", "nom_festival": "Sevenadur" }, "geometry": { "type": "Point", "coordinates": [ -1.6818214, 48.1208367 ] } },
{ "type": "Feature", "properties": { "fid": 85, "addr:street": "Rue de Saint-Malo", "amenity": "bicycle_rental", "capacity": "30", "name": "Auberge de Jeunesse", "nom_festival": "Les rencontres trans musicales de rennes" }, "geometry": { "type": "Point", "coordinates": [ -1.6818214, 48.1208367 ] } },
{ "type": "Feature", "properties": { "fid": 85, "addr:street": "Rue de Saint-Malo", "amenity": "bicycle_rental", "capacity": "30", "name": "Auberge de Jeunesse", "nom_festival": "Transat en ville" }, "geometry": { "type": "Point", "coordinates": [ -1.6818214, 48.1208367 ] } },
{ "type": "Feature", "properties": { "fid": 85, "addr:street": "Rue de Saint-Malo", "amenity": "bicycle_rental", "capacity": "30", "name": "Auberge de Jeunesse", "nom_festival": "Festival yaouank" }, "geometry": { "type": "Point", "coordinates": [ -1.6818214, 48.1208367 ] } },
{ "type": "Feature", "properties": { "fid": 85, "addr:street": "Rue de Saint-Malo", "amenity": "bicycle_rental", "capacity": "30", "name": "Auberge de Jeunesse", "nom_festival": "Jardins d'hiver" }, "geometry": { "type": "Point", "coordinates": [ -1.6818214, 48.1208367 ] } },
{ "type": "Feature", "properties": { "fid": 85, "addr:street": "Rue de Saint-Malo", "amenity": "bicycle_rental", "capacity": "30", "name": "Auberge de Jeunesse", "nom_festival": "Le grand soufflet" }, "geometry": { "type": "Point", "coordinates": [ -1.6818214, 48.1208367 ] } },
{ "type": "Feature", "properties": { "fid": 85, "addr:street": "Rue de Saint-Malo", "amenity": "bicycle_rental", "capacity": "30", "name": "Auberge de Jeunesse", "nom_festival": "Marmaille" }, "geometry": { "type": "Point", "coordinates": [ -1.6818214, 48.1208367 ] } },
{ "type": "Feature", "properties": { "fid": 85, "addr:street": "Rue de Saint-Malo", "amenity": "bicycle_rental", "capacity": "30", "name": "Auberge de Jeunesse", "nom_festival": "Festival rue des livres" }, "geometry": { "type": "Point", "coordinates": [ -1.6818214, 48.1208367 ] } },
{ "type": "Feature", "properties": { "fid": 85, "addr:street": "Rue de Saint-Malo", "amenity": "bicycle_rental", "capacity": "30", "name": "Auberge de Jeunesse", "nom_festival": "Mythos" }, "geometry": { "type": "Point", "coordinates": [ -1.6818214, 48.1208367 ] } },
{ "type": "Feature", "properties": { "fid": 85, "addr:street": "Rue de Saint-Malo", "amenity": "bicycle_rental", "capacity": "30", "name": "Auberge de Jeunesse", "nom_festival": "Festival tnb" }, "geometry": { "type": "Point", "coordinates": [ -1.6818214, 48.1208367 ] } },
{ "type": "Feature", "properties": { "fid": 85, "addr:street": "Rue de Saint-Malo", "amenity": "bicycle_rental", "capacity": "30", "name": "Auberge de Jeunesse", "nom_festival": "Les tombees de la nuit" }, "geometry": { "type": "Point", "coordinates": [ -1.6818214, 48.1208367 ] } },
{ "type": "Feature", "properties": { "fid": 85, "addr:street": "Rue de Saint-Malo", "amenity": "bicycle_rental", "capacity": "30", "name": "Auberge de Jeunesse", "nom_festival": "I'm from rennes (site du thabord)" }, "geometry": { "type": "Point", "coordinates": [ -1.6818214, 48.1208367 ] } },
{ "type": "Feature", "properties": { "fid": 85, "addr:street": "Rue de Saint-Malo", "amenity": "bicycle_rental", "capacity": "30", "name": "Auberge de Jeunesse", "nom_festival": "Made festival" }, "geometry": { "type": "Point", "coordinates": [ -1.6818214, 48.1208367 ] } },
{ "type": "Feature", "properties": { "fid": 86, "addr:street": "Rue de Brest", "amenity": "bicycle_rental", "capacity": "24", "name": "Horizons", "nom_festival": "Festival agrock" }, "geometry": { "type": "Point", "coordinates": [ -1.6897484, 48.1115465 ] } },
{ "type": "Feature", "properties": { "fid": 86, "addr:street": "Rue de Brest", "amenity": "bicycle_rental", "capacity": "24", "name": "Horizons", "nom_festival": "Sevenadur" }, "geometry": { "type": "Point", "coordinates": [ -1.6897484, 48.1115465 ] } },
{ "type": "Feature", "properties": { "fid": 86, "addr:street": "Rue de Brest", "amenity": "bicycle_rental", "capacity": "24", "name": "Horizons", "nom_festival": "Les rencontres trans musicales de rennes" }, "geometry": { "type": "Point", "coordinates": [ -1.6897484, 48.1115465 ] } },
{ "type": "Feature", "properties": { "fid": 86, "addr:street": "Rue de Brest", "amenity": "bicycle_rental", "capacity": "24", "name": "Horizons", "nom_festival": "Transat en ville" }, "geometry": { "type": "Point", "coordinates": [ -1.6897484, 48.1115465 ] } },
{ "type": "Feature", "properties": { "fid": 86, "addr:street": "Rue de Brest", "amenity": "bicycle_rental", "capacity": "24", "name": "Horizons", "nom_festival": "Jardins d'hiver" }, "geometry": { "type": "Point", "coordinates": [ -1.6897484, 48.1115465 ] } },
{ "type": "Feature", "properties": { "fid": 86, "addr:street": "Rue de Brest", "amenity": "bicycle_rental", "capacity": "24", "name": "Horizons", "nom_festival": "Le grand soufflet" }, "geometry": { "type": "Point", "coordinates": [ -1.6897484, 48.1115465 ] } },
{ "type": "Feature", "properties": { "fid": 86, "addr:street": "Rue de Brest", "amenity": "bicycle_rental", "capacity": "24", "name": "Horizons", "nom_festival": "Mythos" }, "geometry": { "type": "Point", "coordinates": [ -1.6897484, 48.1115465 ] } },
{ "type": "Feature", "properties": { "fid": 86, "addr:street": "Rue de Brest", "amenity": "bicycle_rental", "capacity": "24", "name": "Horizons", "nom_festival": "Festival tnb" }, "geometry": { "type": "Point", "coordinates": [ -1.6897484, 48.1115465 ] } },
{ "type": "Feature", "properties": { "fid": 86, "addr:street": "Rue de Brest", "amenity": "bicycle_rental", "capacity": "24", "name": "Horizons", "nom_festival": "Les tombees de la nuit" }, "geometry": { "type": "Point", "coordinates": [ -1.6897484, 48.1115465 ] } },
{ "type": "Feature", "properties": { "fid": 86, "addr:street": "Rue de Brest", "amenity": "bicycle_rental", "capacity": "24", "name": "Horizons", "nom_festival": "I'm from rennes (site du thabord)" }, "geometry": { "type": "Point", "coordinates": [ -1.6897484, 48.1115465 ] } },
{ "type": "Feature", "properties": { "fid": 86, "addr:street": "Rue de Brest", "amenity": "bicycle_rental", "capacity": "24", "name": "Horizons", "nom_festival": "Made festival" }, "geometry": { "type": "Point", "coordinates": [ -1.6897484, 48.1115465 ] } },
{ "type": "Feature", "properties": { "fid": 87, "addr:street": "Avenue Aristide Briand", "amenity": "bicycle_rental", "capacity": "20", "name": "Pont de Châteaudun", "nom_festival": "Les rencontres trans musicales de rennes" }, "geometry": { "type": "Point", "coordinates": [ -1.664398, 48.1102633 ] } },
{ "type": "Feature", "properties": { "fid": 87, "addr:street": "Avenue Aristide Briand", "amenity": "bicycle_rental", "capacity": "20", "name": "Pont de Châteaudun", "nom_festival": "Transat en ville" }, "geometry": { "type": "Point", "coordinates": [ -1.664398, 48.1102633 ] } },
{ "type": "Feature", "properties": { "fid": 87, "addr:street": "Avenue Aristide Briand", "amenity": "bicycle_rental", "capacity": "20", "name": "Pont de Châteaudun", "nom_festival": "Jardins d'hiver" }, "geometry": { "type": "Point", "coordinates": [ -1.664398, 48.1102633 ] } },
{ "type": "Feature", "properties": { "fid": 87, "addr:street": "Avenue Aristide Briand", "amenity": "bicycle_rental", "capacity": "20", "name": "Pont de Châteaudun", "nom_festival": "Le grand soufflet" }, "geometry": { "type": "Point", "coordinates": [ -1.664398, 48.1102633 ] } },
{ "type": "Feature", "properties": { "fid": 87, "addr:street": "Avenue Aristide Briand", "amenity": "bicycle_rental", "capacity": "20", "name": "Pont de Châteaudun", "nom_festival": "Festival rue des livres" }, "geometry": { "type": "Point", "coordinates": [ -1.664398, 48.1102633 ] } },
{ "type": "Feature", "properties": { "fid": 87, "addr:street": "Avenue Aristide Briand", "amenity": "bicycle_rental", "capacity": "20", "name": "Pont de Châteaudun", "nom_festival": "Mythos" }, "geometry": { "type": "Point", "coordinates": [ -1.664398, 48.1102633 ] } },
{ "type": "Feature", "properties": { "fid": 87, "addr:street": "Avenue Aristide Briand", "amenity": "bicycle_rental", "capacity": "20", "name": "Pont de Châteaudun", "nom_festival": "Festival tnb" }, "geometry": { "type": "Point", "coordinates": [ -1.664398, 48.1102633 ] } },
{ "type": "Feature", "properties": { "fid": 87, "addr:street": "Avenue Aristide Briand", "amenity": "bicycle_rental", "capacity": "20", "name": "Pont de Châteaudun", "nom_festival": "Les tombees de la nuit" }, "geometry": { "type": "Point", "coordinates": [ -1.664398, 48.1102633 ] } },
{ "type": "Feature", "properties": { "fid": 87, "addr:street": "Avenue Aristide Briand", "amenity": "bicycle_rental", "capacity": "20", "name": "Pont de Châteaudun", "nom_festival": "I'm from rennes (site du thabord)" }, "geometry": { "type": "Point", "coordinates": [ -1.664398, 48.1102633 ] } },
{ "type": "Feature", "properties": { "fid": 87, "addr:street": "Avenue Aristide Briand", "amenity": "bicycle_rental", "capacity": "20", "name": "Pont de Châteaudun", "nom_festival": "Made festival" }, "geometry": { "type": "Point", "coordinates": [ -1.664398, 48.1102633 ] } },
{ "type": "Feature", "properties": { "fid": 88, "addr:street": "Boulevard de Metz", "amenity": "bicycle_rental", "capacity": "16", "name": "Metz - Sévigné", "nom_festival": "Les rencontres trans musicales de rennes" }, "geometry": { "type": "Point", "coordinates": [ -1.6582667, 48.1159531 ] } },
{ "type": "Feature", "properties": { "fid": 88, "addr:street": "Boulevard de Metz", "amenity": "bicycle_rental", "capacity": "16", "name": "Metz - Sévigné", "nom_festival": "Transat en ville" }, "geometry": { "type": "Point", "coordinates": [ -1.6582667, 48.1159531 ] } },
{ "type": "Feature", "properties": { "fid": 88, "addr:street": "Boulevard de Metz", "amenity": "bicycle_rental", "capacity": "16", "name": "Metz - Sévigné", "nom_festival": "Jardins d'hiver" }, "geometry": { "type": "Point", "coordinates": [ -1.6582667, 48.1159531 ] } },
{ "type": "Feature", "properties": { "fid": 88, "addr:street": "Boulevard de Metz", "amenity": "bicycle_rental", "capacity": "16", "name": "Metz - Sévigné", "nom_festival": "Le grand soufflet" }, "geometry": { "type": "Point", "coordinates": [ -1.6582667, 48.1159531 ] } },
{ "type": "Feature", "properties": { "fid": 88, "addr:street": "Boulevard de Metz", "amenity": "bicycle_rental", "capacity": "16", "name": "Metz - Sévigné", "nom_festival": "Marmaille" }, "geometry": { "type": "Point", "coordinates": [ -1.6582667, 48.1159531 ] } },
{ "type": "Feature", "properties": { "fid": 88, "addr:street": "Boulevard de Metz", "amenity": "bicycle_rental", "capacity": "16", "name": "Metz - Sévigné", "nom_festival": "Rock'n solex" }, "geometry": { "type": "Point", "coordinates": [ -1.6582667, 48.1159531 ] } },
{ "type": "Feature", "properties": { "fid": 88, "addr:street": "Boulevard de Metz", "amenity": "bicycle_rental", "capacity": "16", "name": "Metz - Sévigné", "nom_festival": "Festival rue des livres" }, "geometry": { "type": "Point", "coordinates": [ -1.6582667, 48.1159531 ] } },
{ "type": "Feature", "properties": { "fid": 88, "addr:street": "Boulevard de Metz", "amenity": "bicycle_rental", "capacity": "16", "name": "Metz - Sévigné", "nom_festival": "Mythos" }, "geometry": { "type": "Point", "coordinates": [ -1.6582667, 48.1159531 ] } },
{ "type": "Feature", "properties": { "fid": 88, "addr:street": "Boulevard de Metz", "amenity": "bicycle_rental", "capacity": "16", "name": "Metz - Sévigné", "nom_festival": "Festival tnb" }, "geometry": { "type": "Point", "coordinates": [ -1.6582667, 48.1159531 ] } },
{ "type": "Feature", "properties": { "fid": 88, "addr:street": "Boulevard de Metz", "amenity": "bicycle_rental", "capacity": "16", "name": "Metz - Sévigné", "nom_festival": "Les tombees de la nuit" }, "geometry": { "type": "Point", "coordinates": [ -1.6582667, 48.1159531 ] } },
{ "type": "Feature", "properties": { "fid": 88, "addr:street": "Boulevard de Metz", "amenity": "bicycle_rental", "capacity": "16", "name": "Metz - Sévigné", "nom_festival": "I'm from rennes (site du thabord)" }, "geometry": { "type": "Point", "coordinates": [ -1.6582667, 48.1159531 ] } },
{ "type": "Feature", "properties": { "fid": 88, "addr:street": "Boulevard de Metz", "amenity": "bicycle_rental", "capacity": "16", "name": "Metz - Sévigné", "nom_festival": "Made festival" }, "geometry": { "type": "Point", "coordinates": [ -1.6582667, 48.1159531 ] } },
{ "type": "Feature", "properties": { "fid": 89, "addr:street": "Boulevard de Verdun", "amenity": "bicycle_rental", "capacity": "24", "name": "Brest Verdun", "nom_festival": "Festival agrock" }, "geometry": { "type": "Point", "coordinates": [ -1.693273, 48.113014 ] } },
{ "type": "Feature", "properties": { "fid": 89, "addr:street": "Boulevard de Verdun", "amenity": "bicycle_rental", "capacity": "24", "name": "Brest Verdun", "nom_festival": "Sevenadur" }, "geometry": { "type": "Point", "coordinates": [ -1.693273, 48.113014 ] } },
{ "type": "Feature", "properties": { "fid": 89, "addr:street": "Boulevard de Verdun", "amenity": "bicycle_rental", "capacity": "24", "name": "Brest Verdun", "nom_festival": "Les rencontres trans musicales de rennes" }, "geometry": { "type": "Point", "coordinates": [ -1.693273, 48.113014 ] } },
{ "type": "Feature", "properties": { "fid": 89, "addr:street": "Boulevard de Verdun", "amenity": "bicycle_rental", "capacity": "24", "name": "Brest Verdun", "nom_festival": "Transat en ville" }, "geometry": { "type": "Point", "coordinates": [ -1.693273, 48.113014 ] } },
{ "type": "Feature", "properties": { "fid": 89, "addr:street": "Boulevard de Verdun", "amenity": "bicycle_rental", "capacity": "24", "name": "Brest Verdun", "nom_festival": "Festival yaouank" }, "geometry": { "type": "Point", "coordinates": [ -1.693273, 48.113014 ] } },
{ "type": "Feature", "properties": { "fid": 89, "addr:street": "Boulevard de Verdun", "amenity": "bicycle_rental", "capacity": "24", "name": "Brest Verdun", "nom_festival": "Jardins d'hiver" }, "geometry": { "type": "Point", "coordinates": [ -1.693273, 48.113014 ] } },
{ "type": "Feature", "properties": { "fid": 89, "addr:street": "Boulevard de Verdun", "amenity": "bicycle_rental", "capacity": "24", "name": "Brest Verdun", "nom_festival": "Le grand soufflet" }, "geometry": { "type": "Point", "coordinates": [ -1.693273, 48.113014 ] } },
{ "type": "Feature", "properties": { "fid": 89, "addr:street": "Boulevard de Verdun", "amenity": "bicycle_rental", "capacity": "24", "name": "Brest Verdun", "nom_festival": "Mythos" }, "geometry": { "type": "Point", "coordinates": [ -1.693273, 48.113014 ] } },
{ "type": "Feature", "properties": { "fid": 89, "addr:street": "Boulevard de Verdun", "amenity": "bicycle_rental", "capacity": "24", "name": "Brest Verdun", "nom_festival": "Festival tnb" }, "geometry": { "type": "Point", "coordinates": [ -1.693273, 48.113014 ] } },
{ "type": "Feature", "properties": { "fid": 89, "addr:street": "Boulevard de Verdun", "amenity": "bicycle_rental", "capacity": "24", "name": "Brest Verdun", "nom_festival": "Les tombees de la nuit" }, "geometry": { "type": "Point", "coordinates": [ -1.693273, 48.113014 ] } },
{ "type": "Feature", "properties": { "fid": 89, "addr:street": "Boulevard de Verdun", "amenity": "bicycle_rental", "capacity": "24", "name": "Brest Verdun", "nom_festival": "I'm from rennes (site du thabord)" }, "geometry": { "type": "Point", "coordinates": [ -1.693273, 48.113014 ] } },
{ "type": "Feature", "properties": { "fid": 89, "addr:street": "Boulevard de Verdun", "amenity": "bicycle_rental", "capacity": "24", "name": "Brest Verdun", "nom_festival": "Made festival" }, "geometry": { "type": "Point", "coordinates": [ -1.693273, 48.113014 ] } },
{ "type": "Feature", "properties": { "fid": 90, "addr:street": "Avenue de Cucillé", "amenity": "bicycle_rental", "capacity": "27", "name": "Préfecture", "nom_festival": "Festival agrock" }, "geometry": { "type": "Point", "coordinates": [ -1.693916, 48.128407 ] } },
{ "type": "Feature", "properties": { "fid": 90, "addr:street": "Avenue de Cucillé", "amenity": "bicycle_rental", "capacity": "27", "name": "Préfecture", "nom_festival": "Big love" }, "geometry": { "type": "Point", "coordinates": [ -1.693916, 48.128407 ] } },
{ "type": "Feature", "properties": { "fid": 90, "addr:street": "Avenue de Cucillé", "amenity": "bicycle_rental", "capacity": "27", "name": "Préfecture", "nom_festival": "Sevenadur" }, "geometry": { "type": "Point", "coordinates": [ -1.693916, 48.128407 ] } },
{ "type": "Feature", "properties": { "fid": 90, "addr:street": "Avenue de Cucillé", "amenity": "bicycle_rental", "capacity": "27", "name": "Préfecture", "nom_festival": "Festival yaouank" }, "geometry": { "type": "Point", "coordinates": [ -1.693916, 48.128407 ] } },
{ "type": "Feature", "properties": { "fid": 90, "addr:street": "Avenue de Cucillé", "amenity": "bicycle_rental", "capacity": "27", "name": "Préfecture", "nom_festival": "Le grand soufflet" }, "geometry": { "type": "Point", "coordinates": [ -1.693916, 48.128407 ] } },
{ "type": "Feature", "properties": { "fid": 90, "addr:street": "Avenue de Cucillé", "amenity": "bicycle_rental", "capacity": "27", "name": "Préfecture", "nom_festival": "I'm from rennes (site du thabord)" }, "geometry": { "type": "Point", "coordinates": [ -1.693916, 48.128407 ] } },
{ "type": "Feature", "properties": { "fid": 91, "addr:street": "Rue du Papier Timbré", "amenity": "bicycle_rental", "capacity": "24", "name": "Cité Judiciaire", "nom_festival": "Festival agrock" }, "geometry": { "type": "Point", "coordinates": [ -1.684119, 48.1048118 ] } },
{ "type": "Feature", "properties": { "fid": 91, "addr:street": "Rue du Papier Timbré", "amenity": "bicycle_rental", "capacity": "24", "name": "Cité Judiciaire", "nom_festival": "Les rencontres trans musicales de rennes" }, "geometry": { "type": "Point", "coordinates": [ -1.684119, 48.1048118 ] } },
{ "type": "Feature", "properties": { "fid": 91, "addr:street": "Rue du Papier Timbré", "amenity": "bicycle_rental", "capacity": "24", "name": "Cité Judiciaire", "nom_festival": "Transat en ville" }, "geometry": { "type": "Point", "coordinates": [ -1.684119, 48.1048118 ] } },
{ "type": "Feature", "properties": { "fid": 91, "addr:street": "Rue du Papier Timbré", "amenity": "bicycle_rental", "capacity": "24", "name": "Cité Judiciaire", "nom_festival": "Jardins d'hiver" }, "geometry": { "type": "Point", "coordinates": [ -1.684119, 48.1048118 ] } },
{ "type": "Feature", "properties": { "fid": 91, "addr:street": "Rue du Papier Timbré", "amenity": "bicycle_rental", "capacity": "24", "name": "Cité Judiciaire", "nom_festival": "Le grand soufflet" }, "geometry": { "type": "Point", "coordinates": [ -1.684119, 48.1048118 ] } },
{ "type": "Feature", "properties": { "fid": 91, "addr:street": "Rue du Papier Timbré", "amenity": "bicycle_rental", "capacity": "24", "name": "Cité Judiciaire", "nom_festival": "Mythos" }, "geometry": { "type": "Point", "coordinates": [ -1.684119, 48.1048118 ] } },
{ "type": "Feature", "properties": { "fid": 91, "addr:street": "Rue du Papier Timbré", "amenity": "bicycle_rental", "capacity": "24", "name": "Cité Judiciaire", "nom_festival": "Festival tnb" }, "geometry": { "type": "Point", "coordinates": [ -1.684119, 48.1048118 ] } },
{ "type": "Feature", "properties": { "fid": 91, "addr:street": "Rue du Papier Timbré", "amenity": "bicycle_rental", "capacity": "24", "name": "Cité Judiciaire", "nom_festival": "Les tombees de la nuit" }, "geometry": { "type": "Point", "coordinates": [ -1.684119, 48.1048118 ] } },
{ "type": "Feature", "properties": { "fid": 91, "addr:street": "Rue du Papier Timbré", "amenity": "bicycle_rental", "capacity": "24", "name": "Cité Judiciaire", "nom_festival": "I'm from rennes (site du thabord)" }, "geometry": { "type": "Point", "coordinates": [ -1.684119, 48.1048118 ] } },
{ "type": "Feature", "properties": { "fid": 91, "addr:street": "Rue du Papier Timbré", "amenity": "bicycle_rental", "capacity": "24", "name": "Cité Judiciaire", "nom_festival": "Made festival" }, "geometry": { "type": "Point", "coordinates": [ -1.684119, 48.1048118 ] } },
{ "type": "Feature", "properties": { "fid": 92, "addr:street": "Place Recteur Henri Le Moal", "amenity": "bicycle_rental", "capacity": "26", "name": "Villejean-Université", "nom_festival": "Festival agrock" }, "geometry": { "type": "Point", "coordinates": [ -1.7042335, 48.1210768 ] } },
{ "type": "Feature", "properties": { "fid": 92, "addr:street": "Place Recteur Henri Le Moal", "amenity": "bicycle_rental", "capacity": "26", "name": "Villejean-Université", "nom_festival": "Big love" }, "geometry": { "type": "Point", "coordinates": [ -1.7042335, 48.1210768 ] } },
{ "type": "Feature", "properties": { "fid": 92, "addr:street": "Place Recteur Henri Le Moal", "amenity": "bicycle_rental", "capacity": "26", "name": "Villejean-Université", "nom_festival": "Sevenadur" }, "geometry": { "type": "Point", "coordinates": [ -1.7042335, 48.1210768 ] } },
{ "type": "Feature", "properties": { "fid": 92, "addr:street": "Place Recteur Henri Le Moal", "amenity": "bicycle_rental", "capacity": "26", "name": "Villejean-Université", "nom_festival": "Festival yaouank" }, "geometry": { "type": "Point", "coordinates": [ -1.7042335, 48.1210768 ] } },
{ "type": "Feature", "properties": { "fid": 93, "addr:street": "Rue de Juillet", "amenity": "bicycle_rental", "capacity": "25", "name": "Les Lices", "nom_festival": "Festival agrock" }, "geometry": { "type": "Point", "coordinates": [ -1.685036, 48.112766 ] } },
{ "type": "Feature", "properties": { "fid": 93, "addr:street": "Rue de Juillet", "amenity": "bicycle_rental", "capacity": "25", "name": "Les Lices", "nom_festival": "Sevenadur" }, "geometry": { "type": "Point", "coordinates": [ -1.685036, 48.112766 ] } },
{ "type": "Feature", "properties": { "fid": 93, "addr:street": "Rue de Juillet", "amenity": "bicycle_rental", "capacity": "25", "name": "Les Lices", "nom_festival": "Les rencontres trans musicales de rennes" }, "geometry": { "type": "Point", "coordinates": [ -1.685036, 48.112766 ] } },
{ "type": "Feature", "properties": { "fid": 93, "addr:street": "Rue de Juillet", "amenity": "bicycle_rental", "capacity": "25", "name": "Les Lices", "nom_festival": "Transat en ville" }, "geometry": { "type": "Point", "coordinates": [ -1.685036, 48.112766 ] } },
{ "type": "Feature", "properties": { "fid": 93, "addr:street": "Rue de Juillet", "amenity": "bicycle_rental", "capacity": "25", "name": "Les Lices", "nom_festival": "Festival yaouank" }, "geometry": { "type": "Point", "coordinates": [ -1.685036, 48.112766 ] } },
{ "type": "Feature", "properties": { "fid": 93, "addr:street": "Rue de Juillet", "amenity": "bicycle_rental", "capacity": "25", "name": "Les Lices", "nom_festival": "Jardins d'hiver" }, "geometry": { "type": "Point", "coordinates": [ -1.685036, 48.112766 ] } },
{ "type": "Feature", "properties": { "fid": 93, "addr:street": "Rue de Juillet", "amenity": "bicycle_rental", "capacity": "25", "name": "Les Lices", "nom_festival": "Le grand soufflet" }, "geometry": { "type": "Point", "coordinates": [ -1.685036, 48.112766 ] } },
{ "type": "Feature", "properties": { "fid": 93, "addr:street": "Rue de Juillet", "amenity": "bicycle_rental", "capacity": "25", "name": "Les Lices", "nom_festival": "Mythos" }, "geometry": { "type": "Point", "coordinates": [ -1.685036, 48.112766 ] } },
{ "type": "Feature", "properties": { "fid": 93, "addr:street": "Rue de Juillet", "amenity": "bicycle_rental", "capacity": "25", "name": "Les Lices", "nom_festival": "Festival tnb" }, "geometry": { "type": "Point", "coordinates": [ -1.685036, 48.112766 ] } },
{ "type": "Feature", "properties": { "fid": 93, "addr:street": "Rue de Juillet", "amenity": "bicycle_rental", "capacity": "25", "name": "Les Lices", "nom_festival": "Les tombees de la nuit" }, "geometry": { "type": "Point", "coordinates": [ -1.685036, 48.112766 ] } },
{ "type": "Feature", "properties": { "fid": 93, "addr:street": "Rue de Juillet", "amenity": "bicycle_rental", "capacity": "25", "name": "Les Lices", "nom_festival": "I'm from rennes (site du thabord)" }, "geometry": { "type": "Point", "coordinates": [ -1.685036, 48.112766 ] } },
{ "type": "Feature", "properties": { "fid": 93, "addr:street": "Rue de Juillet", "amenity": "bicycle_rental", "capacity": "25", "name": "Les Lices", "nom_festival": "Made festival" }, "geometry": { "type": "Point", "coordinates": [ -1.685036, 48.112766 ] } },
{ "type": "Feature", "properties": { "fid": 94, "addr:street": "Rue Jean Guéhenno", "amenity": "bicycle_rental", "capacity": "31", "name": "Jules Ferry", "nom_festival": "Sevenadur" }, "geometry": { "type": "Point", "coordinates": [ -1.6706906, 48.1180944 ] } },
{ "type": "Feature", "properties": { "fid": 94, "addr:street": "Rue Jean Guéhenno", "amenity": "bicycle_rental", "capacity": "31", "name": "Jules Ferry", "nom_festival": "Les rencontres trans musicales de rennes" }, "geometry": { "type": "Point", "coordinates": [ -1.6706906, 48.1180944 ] } },
{ "type": "Feature", "properties": { "fid": 94, "addr:street": "Rue Jean Guéhenno", "amenity": "bicycle_rental", "capacity": "31", "name": "Jules Ferry", "nom_festival": "Transat en ville" }, "geometry": { "type": "Point", "coordinates": [ -1.6706906, 48.1180944 ] } },
{ "type": "Feature", "properties": { "fid": 94, "addr:street": "Rue Jean Guéhenno", "amenity": "bicycle_rental", "capacity": "31", "name": "Jules Ferry", "nom_festival": "Festival yaouank" }, "geometry": { "type": "Point", "coordinates": [ -1.6706906, 48.1180944 ] } },
{ "type": "Feature", "properties": { "fid": 94, "addr:street": "Rue Jean Guéhenno", "amenity": "bicycle_rental", "capacity": "31", "name": "Jules Ferry", "nom_festival": "Jardins d'hiver" }, "geometry": { "type": "Point", "coordinates": [ -1.6706906, 48.1180944 ] } },
{ "type": "Feature", "properties": { "fid": 94, "addr:street": "Rue Jean Guéhenno", "amenity": "bicycle_rental", "capacity": "31", "name": "Jules Ferry", "nom_festival": "Le grand soufflet" }, "geometry": { "type": "Point", "coordinates": [ -1.6706906, 48.1180944 ] } },
{ "type": "Feature", "properties": { "fid": 94, "addr:street": "Rue Jean Guéhenno", "amenity": "bicycle_rental", "capacity": "31", "name": "Jules Ferry", "nom_festival": "Marmaille" }, "geometry": { "type": "Point", "coordinates": [ -1.6706906, 48.1180944 ] } },
{ "type": "Feature", "properties": { "fid": 94, "addr:street": "Rue Jean Guéhenno", "amenity": "bicycle_rental", "capacity": "31", "name": "Jules Ferry", "nom_festival": "Festival rue des livres" }, "geometry": { "type": "Point", "coordinates": [ -1.6706906, 48.1180944 ] } },
{ "type": "Feature", "properties": { "fid": 94, "addr:street": "Rue Jean Guéhenno", "amenity": "bicycle_rental", "capacity": "31", "name": "Jules Ferry", "nom_festival": "Mythos" }, "geometry": { "type": "Point", "coordinates": [ -1.6706906, 48.1180944 ] } },
{ "type": "Feature", "properties": { "fid": 94, "addr:street": "Rue Jean Guéhenno", "amenity": "bicycle_rental", "capacity": "31", "name": "Jules Ferry", "nom_festival": "Festival tnb" }, "geometry": { "type": "Point", "coordinates": [ -1.6706906, 48.1180944 ] } },
{ "type": "Feature", "properties": { "fid": 94, "addr:street": "Rue Jean Guéhenno", "amenity": "bicycle_rental", "capacity": "31", "name": "Jules Ferry", "nom_festival": "Les tombees de la nuit" }, "geometry": { "type": "Point", "coordinates": [ -1.6706906, 48.1180944 ] } },
{ "type": "Feature", "properties": { "fid": 94, "addr:street": "Rue Jean Guéhenno", "amenity": "bicycle_rental", "capacity": "31", "name": "Jules Ferry", "nom_festival": "I'm from rennes (site du thabord)" }, "geometry": { "type": "Point", "coordinates": [ -1.6706906, 48.1180944 ] } },
{ "type": "Feature", "properties": { "fid": 94, "addr:street": "Rue Jean Guéhenno", "amenity": "bicycle_rental", "capacity": "31", "name": "Jules Ferry", "nom_festival": "Made festival" }, "geometry": { "type": "Point", "coordinates": [ -1.6706906, 48.1180944 ] } },
{ "type": "Feature", "properties": { "fid": 95, "addr:street": "Avenue de Cucillé", "amenity": "bicycle_rental", "capacity": "25", "name": "Cucillé - Frac", "nom_festival": "Festival agrock" }, "geometry": { "type": "Point", "coordinates": [ -1.6980938, 48.1287999 ] } },
{ "type": "Feature", "properties": { "fid": 95, "addr:street": "Avenue de Cucillé", "amenity": "bicycle_rental", "capacity": "25", "name": "Cucillé - Frac", "nom_festival": "Big love" }, "geometry": { "type": "Point", "coordinates": [ -1.6980938, 48.1287999 ] } },
{ "type": "Feature", "properties": { "fid": 95, "addr:street": "Avenue de Cucillé", "amenity": "bicycle_rental", "capacity": "25", "name": "Cucillé - Frac", "nom_festival": "Sevenadur" }, "geometry": { "type": "Point", "coordinates": [ -1.6980938, 48.1287999 ] } },
{ "type": "Feature", "properties": { "fid": 95, "addr:street": "Avenue de Cucillé", "amenity": "bicycle_rental", "capacity": "25", "name": "Cucillé - Frac", "nom_festival": "Festival yaouank" }, "geometry": { "type": "Point", "coordinates": [ -1.6980938, 48.1287999 ] } },
{ "type": "Feature", "properties": { "fid": 96, "addr:street": "Avenue Henri Fréville", "amenity": "bicycle_rental", "capacity": "22", "name": "Clemenceau", "nom_festival": "Jazz à l'ouest" }, "geometry": { "type": "Point", "coordinates": [ -1.6741091, 48.0932744 ] } },
{ "type": "Feature", "properties": { "fid": 96, "addr:street": "Avenue Henri Fréville", "amenity": "bicycle_rental", "capacity": "22", "name": "Clemenceau", "nom_festival": "Les rencontres trans musicales de rennes" }, "geometry": { "type": "Point", "coordinates": [ -1.6741091, 48.0932744 ] } },
{ "type": "Feature", "properties": { "fid": 96, "addr:street": "Avenue Henri Fréville", "amenity": "bicycle_rental", "capacity": "22", "name": "Clemenceau", "nom_festival": "Transat en ville" }, "geometry": { "type": "Point", "coordinates": [ -1.6741091, 48.0932744 ] } },
{ "type": "Feature", "properties": { "fid": 96, "addr:street": "Avenue Henri Fréville", "amenity": "bicycle_rental", "capacity": "22", "name": "Clemenceau", "nom_festival": "Jardins d'hiver" }, "geometry": { "type": "Point", "coordinates": [ -1.6741091, 48.0932744 ] } },
{ "type": "Feature", "properties": { "fid": 96, "addr:street": "Avenue Henri Fréville", "amenity": "bicycle_rental", "capacity": "22", "name": "Clemenceau", "nom_festival": "Le grand soufflet" }, "geometry": { "type": "Point", "coordinates": [ -1.6741091, 48.0932744 ] } },
{ "type": "Feature", "properties": { "fid": 96, "addr:street": "Avenue Henri Fréville", "amenity": "bicycle_rental", "capacity": "22", "name": "Clemenceau", "nom_festival": "Festival tnb" }, "geometry": { "type": "Point", "coordinates": [ -1.6741091, 48.0932744 ] } },
{ "type": "Feature", "properties": { "fid": 96, "addr:street": "Avenue Henri Fréville", "amenity": "bicycle_rental", "capacity": "22", "name": "Clemenceau", "nom_festival": "Les tombees de la nuit" }, "geometry": { "type": "Point", "coordinates": [ -1.6741091, 48.0932744 ] } },
{ "type": "Feature", "properties": { "fid": 96, "addr:street": "Avenue Henri Fréville", "amenity": "bicycle_rental", "capacity": "22", "name": "Clemenceau", "nom_festival": "I'm from rennes (site du thabord)" }, "geometry": { "type": "Point", "coordinates": [ -1.6741091, 48.0932744 ] } },
{ "type": "Feature", "properties": { "fid": 96, "addr:street": "Avenue Henri Fréville", "amenity": "bicycle_rental", "capacity": "22", "name": "Clemenceau", "nom_festival": "Made festival" }, "geometry": { "type": "Point", "coordinates": [ -1.6741091, 48.0932744 ] } },
{ "type": "Feature", "properties": { "fid": 97, "addr:street": "Rue de Redon", "amenity": "bicycle_rental", "capacity": "20", "name": "La Rotonde", "nom_festival": "Festival agrock" }, "geometry": { "type": "Point", "coordinates": [ -1.6867334, 48.1066928 ] } },
{ "type": "Feature", "properties": { "fid": 97, "addr:street": "Rue de Redon", "amenity": "bicycle_rental", "capacity": "20", "name": "La Rotonde", "nom_festival": "Les rencontres trans musicales de rennes" }, "geometry": { "type": "Point", "coordinates": [ -1.6867334, 48.1066928 ] } },
{ "type": "Feature", "properties": { "fid": 97, "addr:street": "Rue de Redon", "amenity": "bicycle_rental", "capacity": "20", "name": "La Rotonde", "nom_festival": "Transat en ville" }, "geometry": { "type": "Point", "coordinates": [ -1.6867334, 48.1066928 ] } },
{ "type": "Feature", "properties": { "fid": 97, "addr:street": "Rue de Redon", "amenity": "bicycle_rental", "capacity": "20", "name": "La Rotonde", "nom_festival": "Jardins d'hiver" }, "geometry": { "type": "Point", "coordinates": [ -1.6867334, 48.1066928 ] } },
{ "type": "Feature", "properties": { "fid": 97, "addr:street": "Rue de Redon", "amenity": "bicycle_rental", "capacity": "20", "name": "La Rotonde", "nom_festival": "Le grand soufflet" }, "geometry": { "type": "Point", "coordinates": [ -1.6867334, 48.1066928 ] } },
{ "type": "Feature", "properties": { "fid": 97, "addr:street": "Rue de Redon", "amenity": "bicycle_rental", "capacity": "20", "name": "La Rotonde", "nom_festival": "Mythos" }, "geometry": { "type": "Point", "coordinates": [ -1.6867334, 48.1066928 ] } },
{ "type": "Feature", "properties": { "fid": 97, "addr:street": "Rue de Redon", "amenity": "bicycle_rental", "capacity": "20", "name": "La Rotonde", "nom_festival": "Festival tnb" }, "geometry": { "type": "Point", "coordinates": [ -1.6867334, 48.1066928 ] } },
{ "type": "Feature", "properties": { "fid": 97, "addr:street": "Rue de Redon", "amenity": "bicycle_rental", "capacity": "20", "name": "La Rotonde", "nom_festival": "Les tombees de la nuit" }, "geometry": { "type": "Point", "coordinates": [ -1.6867334, 48.1066928 ] } },
{ "type": "Feature", "properties": { "fid": 97, "addr:street": "Rue de Redon", "amenity": "bicycle_rental", "capacity": "20", "name": "La Rotonde", "nom_festival": "I'm from rennes (site du thabord)" }, "geometry": { "type": "Point", "coordinates": [ -1.6867334, 48.1066928 ] } },
{ "type": "Feature", "properties": { "fid": 97, "addr:street": "Rue de Redon", "amenity": "bicycle_rental", "capacity": "20", "name": "La Rotonde", "nom_festival": "Made festival" }, "geometry": { "type": "Point", "coordinates": [ -1.6867334, 48.1066928 ] } },
{ "type": "Feature", "properties": { "fid": 98, "addr:street": "Place Hoche", "amenity": "bicycle_rental", "capacity": "39", "name": "Place Hoche", "nom_festival": "Festival agrock" }, "geometry": { "type": "Point", "coordinates": [ -1.6770704, 48.1150728 ] } },
{ "type": "Feature", "properties": { "fid": 98, "addr:street": "Place Hoche", "amenity": "bicycle_rental", "capacity": "39", "name": "Place Hoche", "nom_festival": "Sevenadur" }, "geometry": { "type": "Point", "coordinates": [ -1.6770704, 48.1150728 ] } },
{ "type": "Feature", "properties": { "fid": 98, "addr:street": "Place Hoche", "amenity": "bicycle_rental", "capacity": "39", "name": "Place Hoche", "nom_festival": "Les rencontres trans musicales de rennes" }, "geometry": { "type": "Point", "coordinates": [ -1.6770704, 48.1150728 ] } },
{ "type": "Feature", "properties": { "fid": 98, "addr:street": "Place Hoche", "amenity": "bicycle_rental", "capacity": "39", "name": "Place Hoche", "nom_festival": "Transat en ville" }, "geometry": { "type": "Point", "coordinates": [ -1.6770704, 48.1150728 ] } },
{ "type": "Feature", "properties": { "fid": 98, "addr:street": "Place Hoche", "amenity": "bicycle_rental", "capacity": "39", "name": "Place Hoche", "nom_festival": "Festival yaouank" }, "geometry": { "type": "Point", "coordinates": [ -1.6770704, 48.1150728 ] } },
{ "type": "Feature", "properties": { "fid": 98, "addr:street": "Place Hoche", "amenity": "bicycle_rental", "capacity": "39", "name": "Place Hoche", "nom_festival": "Jardins d'hiver" }, "geometry": { "type": "Point", "coordinates": [ -1.6770704, 48.1150728 ] } },
{ "type": "Feature", "properties": { "fid": 98, "addr:street": "Place Hoche", "amenity": "bicycle_rental", "capacity": "39", "name": "Place Hoche", "nom_festival": "Le grand soufflet" }, "geometry": { "type": "Point", "coordinates": [ -1.6770704, 48.1150728 ] } },
{ "type": "Feature", "properties": { "fid": 98, "addr:street": "Place Hoche", "amenity": "bicycle_rental", "capacity": "39", "name": "Place Hoche", "nom_festival": "Marmaille" }, "geometry": { "type": "Point", "coordinates": [ -1.6770704, 48.1150728 ] } },
{ "type": "Feature", "properties": { "fid": 98, "addr:street": "Place Hoche", "amenity": "bicycle_rental", "capacity": "39", "name": "Place Hoche", "nom_festival": "Festival rue des livres" }, "geometry": { "type": "Point", "coordinates": [ -1.6770704, 48.1150728 ] } },
{ "type": "Feature", "properties": { "fid": 98, "addr:street": "Place Hoche", "amenity": "bicycle_rental", "capacity": "39", "name": "Place Hoche", "nom_festival": "Mythos" }, "geometry": { "type": "Point", "coordinates": [ -1.6770704, 48.1150728 ] } },
{ "type": "Feature", "properties": { "fid": 98, "addr:street": "Place Hoche", "amenity": "bicycle_rental", "capacity": "39", "name": "Place Hoche", "nom_festival": "Festival tnb" }, "geometry": { "type": "Point", "coordinates": [ -1.6770704, 48.1150728 ] } },
{ "type": "Feature", "properties": { "fid": 98, "addr:street": "Place Hoche", "amenity": "bicycle_rental", "capacity": "39", "name": "Place Hoche", "nom_festival": "Les tombees de la nuit" }, "geometry": { "type": "Point", "coordinates": [ -1.6770704, 48.1150728 ] } },
{ "type": "Feature", "properties": { "fid": 98, "addr:street": "Place Hoche", "amenity": "bicycle_rental", "capacity": "39", "name": "Place Hoche", "nom_festival": "I'm from rennes (site du thabord)" }, "geometry": { "type": "Point", "coordinates": [ -1.6770704, 48.1150728 ] } },
{ "type": "Feature", "properties": { "fid": 98, "addr:street": "Place Hoche", "amenity": "bicycle_rental", "capacity": "39", "name": "Place Hoche", "nom_festival": "Made festival" }, "geometry": { "type": "Point", "coordinates": [ -1.6770704, 48.1150728 ] } },
{ "type": "Feature", "properties": { "fid": 99, "addr:street": "Rue Louis et René Moine", "amenity": "bicycle_rental", "capacity": "18", "name": "Champs Manceaux", "nom_festival": "Jazz à l'ouest" }, "geometry": { "type": "Point", "coordinates": [ -1.6823243, 48.0911583 ] } },
{ "type": "Feature", "properties": { "fid": 99, "addr:street": "Rue Louis et René Moine", "amenity": "bicycle_rental", "capacity": "18", "name": "Champs Manceaux", "nom_festival": "Les rencontres trans musicales de rennes" }, "geometry": { "type": "Point", "coordinates": [ -1.6823243, 48.0911583 ] } },
{ "type": "Feature", "properties": { "fid": 99, "addr:street": "Rue Louis et René Moine", "amenity": "bicycle_rental", "capacity": "18", "name": "Champs Manceaux", "nom_festival": "Jardins d'hiver" }, "geometry": { "type": "Point", "coordinates": [ -1.6823243, 48.0911583 ] } },
{ "type": "Feature", "properties": { "fid": 99, "addr:street": "Rue Louis et René Moine", "amenity": "bicycle_rental", "capacity": "18", "name": "Champs Manceaux", "nom_festival": "Festival tnb" }, "geometry": { "type": "Point", "coordinates": [ -1.6823243, 48.0911583 ] } },
{ "type": "Feature", "properties": { "fid": 100, "addr:street": "Mail Louise Bourgeois", "amenity": "bicycle_rental", "capacity": "20", "name": "Croix Saint-Hélier", "nom_festival": "Les rencontres trans musicales de rennes" }, "geometry": { "type": "Point", "coordinates": [ -1.6621893, 48.1031033 ] } },
{ "type": "Feature", "properties": { "fid": 100, "addr:street": "Mail Louise Bourgeois", "amenity": "bicycle_rental", "capacity": "20", "name": "Croix Saint-Hélier", "nom_festival": "Transat en ville" }, "geometry": { "type": "Point", "coordinates": [ -1.6621893, 48.1031033 ] } },
{ "type": "Feature", "properties": { "fid": 100, "addr:street": "Mail Louise Bourgeois", "amenity": "bicycle_rental", "capacity": "20", "name": "Croix Saint-Hélier", "nom_festival": "Jardins d'hiver" }, "geometry": { "type": "Point", "coordinates": [ -1.6621893, 48.1031033 ] } },
{ "type": "Feature", "properties": { "fid": 100, "addr:street": "Mail Louise Bourgeois", "amenity": "bicycle_rental", "capacity": "20", "name": "Croix Saint-Hélier", "nom_festival": "Le grand soufflet" }, "geometry": { "type": "Point", "coordinates": [ -1.6621893, 48.1031033 ] } },
{ "type": "Feature", "properties": { "fid": 100, "addr:street": "Mail Louise Bourgeois", "amenity": "bicycle_rental", "capacity": "20", "name": "Croix Saint-Hélier", "nom_festival": "Dooinit festival" }, "geometry": { "type": "Point", "coordinates": [ -1.6621893, 48.1031033 ] } },
{ "type": "Feature", "properties": { "fid": 100, "addr:street": "Mail Louise Bourgeois", "amenity": "bicycle_rental", "capacity": "20", "name": "Croix Saint-Hélier", "nom_festival": "Ballade avec brassens" }, "geometry": { "type": "Point", "coordinates": [ -1.6621893, 48.1031033 ] } },
{ "type": "Feature", "properties": { "fid": 100, "addr:street": "Mail Louise Bourgeois", "amenity": "bicycle_rental", "capacity": "20", "name": "Croix Saint-Hélier", "nom_festival": "Mythos" }, "geometry": { "type": "Point", "coordinates": [ -1.6621893, 48.1031033 ] } },
{ "type": "Feature", "properties": { "fid": 100, "addr:street": "Mail Louise Bourgeois", "amenity": "bicycle_rental", "capacity": "20", "name": "Croix Saint-Hélier", "nom_festival": "Festival tnb" }, "geometry": { "type": "Point", "coordinates": [ -1.6621893, 48.1031033 ] } },
{ "type": "Feature", "properties": { "fid": 100, "addr:street": "Mail Louise Bourgeois", "amenity": "bicycle_rental", "capacity": "20", "name": "Croix Saint-Hélier", "nom_festival": "Les tombees de la nuit" }, "geometry": { "type": "Point", "coordinates": [ -1.6621893, 48.1031033 ] } },
{ "type": "Feature", "properties": { "fid": 100, "addr:street": "Mail Louise Bourgeois", "amenity": "bicycle_rental", "capacity": "20", "name": "Croix Saint-Hélier", "nom_festival": "I'm from rennes (site du thabord)" }, "geometry": { "type": "Point", "coordinates": [ -1.6621893, 48.1031033 ] } },
{ "type": "Feature", "properties": { "fid": 100, "addr:street": "Mail Louise Bourgeois", "amenity": "bicycle_rental", "capacity": "20", "name": "Croix Saint-Hélier", "nom_festival": "Made festival" }, "geometry": { "type": "Point", "coordinates": [ -1.6621893, 48.1031033 ] } },
{ "type": "Feature", "properties": { "fid": 101, "addr:street": "Avenue Gaston Berger", "amenity": "bicycle_rental", "capacity": "14", "name": "Berger", "nom_festival": "Festival agrock" }, "geometry": { "type": "Point", "coordinates": [ -1.705127, 48.11629 ] } },
{ "type": "Feature", "properties": { "fid": 101, "addr:street": "Avenue Gaston Berger", "amenity": "bicycle_rental", "capacity": "14", "name": "Berger", "nom_festival": "Big love" }, "geometry": { "type": "Point", "coordinates": [ -1.705127, 48.11629 ] } },
{ "type": "Feature", "properties": { "fid": 101, "addr:street": "Avenue Gaston Berger", "amenity": "bicycle_rental", "capacity": "14", "name": "Berger", "nom_festival": "Sevenadur" }, "geometry": { "type": "Point", "coordinates": [ -1.705127, 48.11629 ] } },
{ "type": "Feature", "properties": { "fid": 101, "addr:street": "Avenue Gaston Berger", "amenity": "bicycle_rental", "capacity": "14", "name": "Berger", "nom_festival": "Les rencontres trans musicales de rennes" }, "geometry": { "type": "Point", "coordinates": [ -1.705127, 48.11629 ] } },
{ "type": "Feature", "properties": { "fid": 101, "addr:street": "Avenue Gaston Berger", "amenity": "bicycle_rental", "capacity": "14", "name": "Berger", "nom_festival": "Transat en ville" }, "geometry": { "type": "Point", "coordinates": [ -1.705127, 48.11629 ] } },
{ "type": "Feature", "properties": { "fid": 101, "addr:street": "Avenue Gaston Berger", "amenity": "bicycle_rental", "capacity": "14", "name": "Berger", "nom_festival": "Les tombees de la nuit" }, "geometry": { "type": "Point", "coordinates": [ -1.705127, 48.11629 ] } },
{ "type": "Feature", "properties": { "fid": 101, "addr:street": "Avenue Gaston Berger", "amenity": "bicycle_rental", "capacity": "14", "name": "Berger", "nom_festival": "Made festival" }, "geometry": { "type": "Point", "coordinates": [ -1.705127, 48.11629 ] } },
{ "type": "Feature", "properties": { "fid": 102, "addr:street": "Avenue Jean Janvier", "amenity": "bicycle_rental", "capacity": "16", "name": "Musée Beaux-Arts", "nom_festival": "Sevenadur" }, "geometry": { "type": "Point", "coordinates": [ -1.674072, 48.109573 ] } },
{ "type": "Feature", "properties": { "fid": 102, "addr:street": "Avenue Jean Janvier", "amenity": "bicycle_rental", "capacity": "16", "name": "Musée Beaux-Arts", "nom_festival": "Les rencontres trans musicales de rennes" }, "geometry": { "type": "Point", "coordinates": [ -1.674072, 48.109573 ] } },
{ "type": "Feature", "properties": { "fid": 102, "addr:street": "Avenue Jean Janvier", "amenity": "bicycle_rental", "capacity": "16", "name": "Musée Beaux-Arts", "nom_festival": "Transat en ville" }, "geometry": { "type": "Point", "coordinates": [ -1.674072, 48.109573 ] } },
{ "type": "Feature", "properties": { "fid": 102, "addr:street": "Avenue Jean Janvier", "amenity": "bicycle_rental", "capacity": "16", "name": "Musée Beaux-Arts", "nom_festival": "Jardins d'hiver" }, "geometry": { "type": "Point", "coordinates": [ -1.674072, 48.109573 ] } },
{ "type": "Feature", "properties": { "fid": 102, "addr:street": "Avenue Jean Janvier", "amenity": "bicycle_rental", "capacity": "16", "name": "Musée Beaux-Arts", "nom_festival": "Le grand soufflet" }, "geometry": { "type": "Point", "coordinates": [ -1.674072, 48.109573 ] } },
{ "type": "Feature", "properties": { "fid": 102, "addr:street": "Avenue Jean Janvier", "amenity": "bicycle_rental", "capacity": "16", "name": "Musée Beaux-Arts", "nom_festival": "Festival rue des livres" }, "geometry": { "type": "Point", "coordinates": [ -1.674072, 48.109573 ] } },
{ "type": "Feature", "properties": { "fid": 102, "addr:street": "Avenue Jean Janvier", "amenity": "bicycle_rental", "capacity": "16", "name": "Musée Beaux-Arts", "nom_festival": "Mythos" }, "geometry": { "type": "Point", "coordinates": [ -1.674072, 48.109573 ] } },
{ "type": "Feature", "properties": { "fid": 102, "addr:street": "Avenue Jean Janvier", "amenity": "bicycle_rental", "capacity": "16", "name": "Musée Beaux-Arts", "nom_festival": "Festival tnb" }, "geometry": { "type": "Point", "coordinates": [ -1.674072, 48.109573 ] } },
{ "type": "Feature", "properties": { "fid": 102, "addr:street": "Avenue Jean Janvier", "amenity": "bicycle_rental", "capacity": "16", "name": "Musée Beaux-Arts", "nom_festival": "Les tombees de la nuit" }, "geometry": { "type": "Point", "coordinates": [ -1.674072, 48.109573 ] } },
{ "type": "Feature", "properties": { "fid": 102, "addr:street": "Avenue Jean Janvier", "amenity": "bicycle_rental", "capacity": "16", "name": "Musée Beaux-Arts", "nom_festival": "I'm from rennes (site du thabord)" }, "geometry": { "type": "Point", "coordinates": [ -1.674072, 48.109573 ] } },
{ "type": "Feature", "properties": { "fid": 102, "addr:street": "Avenue Jean Janvier", "amenity": "bicycle_rental", "capacity": "16", "name": "Musée Beaux-Arts", "nom_festival": "Made festival" }, "geometry": { "type": "Point", "coordinates": [ -1.674072, 48.109573 ] } },
{ "type": "Feature", "properties": { "fid": 103, "addr:street": "Square de Kergus", "amenity": "bicycle_rental", "capacity": "28", "name": "TNB", "nom_festival": "Les rencontres trans musicales de rennes" }, "geometry": { "type": "Point", "coordinates": [ -1.6737148, 48.1077551 ] } },
{ "type": "Feature", "properties": { "fid": 103, "addr:street": "Square de Kergus", "amenity": "bicycle_rental", "capacity": "28", "name": "TNB", "nom_festival": "Transat en ville" }, "geometry": { "type": "Point", "coordinates": [ -1.6737148, 48.1077551 ] } },
{ "type": "Feature", "properties": { "fid": 103, "addr:street": "Square de Kergus", "amenity": "bicycle_rental", "capacity": "28", "name": "TNB", "nom_festival": "Jardins d'hiver" }, "geometry": { "type": "Point", "coordinates": [ -1.6737148, 48.1077551 ] } },
{ "type": "Feature", "properties": { "fid": 103, "addr:street": "Square de Kergus", "amenity": "bicycle_rental", "capacity": "28", "name": "TNB", "nom_festival": "Le grand soufflet" }, "geometry": { "type": "Point", "coordinates": [ -1.6737148, 48.1077551 ] } },
{ "type": "Feature", "properties": { "fid": 103, "addr:street": "Square de Kergus", "amenity": "bicycle_rental", "capacity": "28", "name": "TNB", "nom_festival": "Mythos" }, "geometry": { "type": "Point", "coordinates": [ -1.6737148, 48.1077551 ] } },
{ "type": "Feature", "properties": { "fid": 103, "addr:street": "Square de Kergus", "amenity": "bicycle_rental", "capacity": "28", "name": "TNB", "nom_festival": "Festival tnb" }, "geometry": { "type": "Point", "coordinates": [ -1.6737148, 48.1077551 ] } },
{ "type": "Feature", "properties": { "fid": 103, "addr:street": "Square de Kergus", "amenity": "bicycle_rental", "capacity": "28", "name": "TNB", "nom_festival": "Les tombees de la nuit" }, "geometry": { "type": "Point", "coordinates": [ -1.6737148, 48.1077551 ] } },
{ "type": "Feature", "properties": { "fid": 103, "addr:street": "Square de Kergus", "amenity": "bicycle_rental", "capacity": "28", "name": "TNB", "nom_festival": "I'm from rennes (site du thabord)" }, "geometry": { "type": "Point", "coordinates": [ -1.6737148, 48.1077551 ] } },
{ "type": "Feature", "properties": { "fid": 103, "addr:street": "Square de Kergus", "amenity": "bicycle_rental", "capacity": "28", "name": "TNB", "nom_festival": "Made festival" }, "geometry": { "type": "Point", "coordinates": [ -1.6737148, 48.1077551 ] } },
{ "type": "Feature", "properties": { "fid": 104, "addr:street": null, "amenity": "bicycle_rental", "capacity": "29", "name": "Painlevé", "nom_festival": "Transat en ville" }, "geometry": { "type": "Point", "coordinates": [ -1.6597596, 48.1235033 ] } },
{ "type": "Feature", "properties": { "fid": 104, "addr:street": null, "amenity": "bicycle_rental", "capacity": "29", "name": "Painlevé", "nom_festival": "Le grand soufflet" }, "geometry": { "type": "Point", "coordinates": [ -1.6597596, 48.1235033 ] } },
{ "type": "Feature", "properties": { "fid": 104, "addr:street": null, "amenity": "bicycle_rental", "capacity": "29", "name": "Painlevé", "nom_festival": "Marmaille" }, "geometry": { "type": "Point", "coordinates": [ -1.6597596, 48.1235033 ] } },
{ "type": "Feature", "properties": { "fid": 104, "addr:street": null, "amenity": "bicycle_rental", "capacity": "29", "name": "Painlevé", "nom_festival": "Rock'n solex" }, "geometry": { "type": "Point", "coordinates": [ -1.6597596, 48.1235033 ] } },
{ "type": "Feature", "properties": { "fid": 104, "addr:street": null, "amenity": "bicycle_rental", "capacity": "29", "name": "Painlevé", "nom_festival": "Festival rue des livres" }, "geometry": { "type": "Point", "coordinates": [ -1.6597596, 48.1235033 ] } },
{ "type": "Feature", "properties": { "fid": 104, "addr:street": null, "amenity": "bicycle_rental", "capacity": "29", "name": "Painlevé", "nom_festival": "Mythos" }, "geometry": { "type": "Point", "coordinates": [ -1.6597596, 48.1235033 ] } },
{ "type": "Feature", "properties": { "fid": 104, "addr:street": null, "amenity": "bicycle_rental", "capacity": "29", "name": "Painlevé", "nom_festival": "Les tombees de la nuit" }, "geometry": { "type": "Point", "coordinates": [ -1.6597596, 48.1235033 ] } },
{ "type": "Feature", "properties": { "fid": 104, "addr:street": null, "amenity": "bicycle_rental", "capacity": "29", "name": "Painlevé", "nom_festival": "I'm from rennes (site du thabord)" }, "geometry": { "type": "Point", "coordinates": [ -1.6597596, 48.1235033 ] } },
{ "type": "Feature", "properties": { "fid": 104, "addr:street": null, "amenity": "bicycle_rental", "capacity": "29", "name": "Painlevé", "nom_festival": "Made festival" }, "geometry": { "type": "Point", "coordinates": [ -1.6597596, 48.1235033 ] } },
{ "type": "Feature", "properties": { "fid": 105, "addr:street": "Rue de Vern", "amenity": "bicycle_rental", "capacity": "28", "name": "La Poterie", "nom_festival": "Dooinit festival" }, "geometry": { "type": "Point", "coordinates": [ -1.6441279, 48.0872775 ] } },
{ "type": "Feature", "properties": { "fid": 105, "addr:street": "Rue de Vern", "amenity": "bicycle_rental", "capacity": "28", "name": "La Poterie", "nom_festival": "Ballade avec brassens" }, "geometry": { "type": "Point", "coordinates": [ -1.6441279, 48.0872775 ] } },
{ "type": "Feature", "properties": { "fid": 106, "addr:street": "Boulevard René Laënnec", "amenity": "bicycle_rental", "capacity": "24", "name": "Bonnets Rouges", "nom_festival": "Les rencontres trans musicales de rennes" }, "geometry": { "type": "Point", "coordinates": [ -1.665814, 48.1068478 ] } },
{ "type": "Feature", "properties": { "fid": 106, "addr:street": "Boulevard René Laënnec", "amenity": "bicycle_rental", "capacity": "24", "name": "Bonnets Rouges", "nom_festival": "Transat en ville" }, "geometry": { "type": "Point", "coordinates": [ -1.665814, 48.1068478 ] } },
{ "type": "Feature", "properties": { "fid": 106, "addr:street": "Boulevard René Laënnec", "amenity": "bicycle_rental", "capacity": "24", "name": "Bonnets Rouges", "nom_festival": "Jardins d'hiver" }, "geometry": { "type": "Point", "coordinates": [ -1.665814, 48.1068478 ] } },
{ "type": "Feature", "properties": { "fid": 106, "addr:street": "Boulevard René Laënnec", "amenity": "bicycle_rental", "capacity": "24", "name": "Bonnets Rouges", "nom_festival": "Le grand soufflet" }, "geometry": { "type": "Point", "coordinates": [ -1.665814, 48.1068478 ] } },
{ "type": "Feature", "properties": { "fid": 106, "addr:street": "Boulevard René Laënnec", "amenity": "bicycle_rental", "capacity": "24", "name": "Bonnets Rouges", "nom_festival": "Dooinit festival" }, "geometry": { "type": "Point", "coordinates": [ -1.665814, 48.1068478 ] } },
{ "type": "Feature", "properties": { "fid": 106, "addr:street": "Boulevard René Laënnec", "amenity": "bicycle_rental", "capacity": "24", "name": "Bonnets Rouges", "nom_festival": "Ballade avec brassens" }, "geometry": { "type": "Point", "coordinates": [ -1.665814, 48.1068478 ] } },
{ "type": "Feature", "properties": { "fid": 106, "addr:street": "Boulevard René Laënnec", "amenity": "bicycle_rental", "capacity": "24", "name": "Bonnets Rouges", "nom_festival": "Festival rue des livres" }, "geometry": { "type": "Point", "coordinates": [ -1.665814, 48.1068478 ] } },
{ "type": "Feature", "properties": { "fid": 106, "addr:street": "Boulevard René Laënnec", "amenity": "bicycle_rental", "capacity": "24", "name": "Bonnets Rouges", "nom_festival": "Mythos" }, "geometry": { "type": "Point", "coordinates": [ -1.665814, 48.1068478 ] } },
{ "type": "Feature", "properties": { "fid": 106, "addr:street": "Boulevard René Laënnec", "amenity": "bicycle_rental", "capacity": "24", "name": "Bonnets Rouges", "nom_festival": "Festival tnb" }, "geometry": { "type": "Point", "coordinates": [ -1.665814, 48.1068478 ] } },
{ "type": "Feature", "properties": { "fid": 106, "addr:street": "Boulevard René Laënnec", "amenity": "bicycle_rental", "capacity": "24", "name": "Bonnets Rouges", "nom_festival": "Les tombees de la nuit" }, "geometry": { "type": "Point", "coordinates": [ -1.665814, 48.1068478 ] } },
{ "type": "Feature", "properties": { "fid": 106, "addr:street": "Boulevard René Laënnec", "amenity": "bicycle_rental", "capacity": "24", "name": "Bonnets Rouges", "nom_festival": "I'm from rennes (site du thabord)" }, "geometry": { "type": "Point", "coordinates": [ -1.665814, 48.1068478 ] } },
{ "type": "Feature", "properties": { "fid": 106, "addr:street": "Boulevard René Laënnec", "amenity": "bicycle_rental", "capacity": "24", "name": "Bonnets Rouges", "nom_festival": "Made festival" }, "geometry": { "type": "Point", "coordinates": [ -1.665814, 48.1068478 ] } },
{ "type": "Feature", "properties": { "fid": 107, "addr:street": "Rue du Docteur Francis Joly", "amenity": "bicycle_rental", "capacity": "20", "name": "Pont de Nantes", "nom_festival": "Festival agrock" }, "geometry": { "type": "Point", "coordinates": [ -1.6840003, 48.1020799 ] } },
{ "type": "Feature", "properties": { "fid": 107, "addr:street": "Rue du Docteur Francis Joly", "amenity": "bicycle_rental", "capacity": "20", "name": "Pont de Nantes", "nom_festival": "Jazz à l'ouest" }, "geometry": { "type": "Point", "coordinates": [ -1.6840003, 48.1020799 ] } },
{ "type": "Feature", "properties": { "fid": 107, "addr:street": "Rue du Docteur Francis Joly", "amenity": "bicycle_rental", "capacity": "20", "name": "Pont de Nantes", "nom_festival": "Les rencontres trans musicales de rennes" }, "geometry": { "type": "Point", "coordinates": [ -1.6840003, 48.1020799 ] } },
{ "type": "Feature", "properties": { "fid": 107, "addr:street": "Rue du Docteur Francis Joly", "amenity": "bicycle_rental", "capacity": "20", "name": "Pont de Nantes", "nom_festival": "Transat en ville" }, "geometry": { "type": "Point", "coordinates": [ -1.6840003, 48.1020799 ] } },
{ "type": "Feature", "properties": { "fid": 107, "addr:street": "Rue du Docteur Francis Joly", "amenity": "bicycle_rental", "capacity": "20", "name": "Pont de Nantes", "nom_festival": "Jardins d'hiver" }, "geometry": { "type": "Point", "coordinates": [ -1.6840003, 48.1020799 ] } },
{ "type": "Feature", "properties": { "fid": 107, "addr:street": "Rue du Docteur Francis Joly", "amenity": "bicycle_rental", "capacity": "20", "name": "Pont de Nantes", "nom_festival": "Le grand soufflet" }, "geometry": { "type": "Point", "coordinates": [ -1.6840003, 48.1020799 ] } },
{ "type": "Feature", "properties": { "fid": 107, "addr:street": "Rue du Docteur Francis Joly", "amenity": "bicycle_rental", "capacity": "20", "name": "Pont de Nantes", "nom_festival": "Mythos" }, "geometry": { "type": "Point", "coordinates": [ -1.6840003, 48.1020799 ] } },
{ "type": "Feature", "properties": { "fid": 107, "addr:street": "Rue du Docteur Francis Joly", "amenity": "bicycle_rental", "capacity": "20", "name": "Pont de Nantes", "nom_festival": "Festival tnb" }, "geometry": { "type": "Point", "coordinates": [ -1.6840003, 48.1020799 ] } },
{ "type": "Feature", "properties": { "fid": 107, "addr:street": "Rue du Docteur Francis Joly", "amenity": "bicycle_rental", "capacity": "20", "name": "Pont de Nantes", "nom_festival": "Les tombees de la nuit" }, "geometry": { "type": "Point", "coordinates": [ -1.6840003, 48.1020799 ] } },
{ "type": "Feature", "properties": { "fid": 107, "addr:street": "Rue du Docteur Francis Joly", "amenity": "bicycle_rental", "capacity": "20", "name": "Pont de Nantes", "nom_festival": "I'm from rennes (site du thabord)" }, "geometry": { "type": "Point", "coordinates": [ -1.6840003, 48.1020799 ] } },
{ "type": "Feature", "properties": { "fid": 107, "addr:street": "Rue du Docteur Francis Joly", "amenity": "bicycle_rental", "capacity": "20", "name": "Pont de Nantes", "nom_festival": "Made festival" }, "geometry": { "type": "Point", "coordinates": [ -1.6840003, 48.1020799 ] } },
{ "type": "Feature", "properties": { "fid": 108, "addr:street": "Allée de Beaulieu", "amenity": "bicycle_rental", "capacity": "30", "name": "Beaulieu Chimie", "nom_festival": "Rock'n solex" }, "geometry": { "type": "Point", "coordinates": [ -1.6338734, 48.11646 ] } },
{ "type": "Feature", "properties": { "fid": 109, "addr:street": "Mail François Mitterrand", "amenity": "bicycle_rental", "capacity": "28", "name": "Chèques Postaux", "nom_festival": "Festival agrock" }, "geometry": { "type": "Point", "coordinates": [ -1.6933525, 48.1087599 ] } },
{ "type": "Feature", "properties": { "fid": 109, "addr:street": "Mail François Mitterrand", "amenity": "bicycle_rental", "capacity": "28", "name": "Chèques Postaux", "nom_festival": "Sevenadur" }, "geometry": { "type": "Point", "coordinates": [ -1.6933525, 48.1087599 ] } },
{ "type": "Feature", "properties": { "fid": 109, "addr:street": "Mail François Mitterrand", "amenity": "bicycle_rental", "capacity": "28", "name": "Chèques Postaux", "nom_festival": "Les rencontres trans musicales de rennes" }, "geometry": { "type": "Point", "coordinates": [ -1.6933525, 48.1087599 ] } },
{ "type": "Feature", "properties": { "fid": 109, "addr:street": "Mail François Mitterrand", "amenity": "bicycle_rental", "capacity": "28", "name": "Chèques Postaux", "nom_festival": "Transat en ville" }, "geometry": { "type": "Point", "coordinates": [ -1.6933525, 48.1087599 ] } },
{ "type": "Feature", "properties": { "fid": 109, "addr:street": "Mail François Mitterrand", "amenity": "bicycle_rental", "capacity": "28", "name": "Chèques Postaux", "nom_festival": "Jardins d'hiver" }, "geometry": { "type": "Point", "coordinates": [ -1.6933525, 48.1087599 ] } },
{ "type": "Feature", "properties": { "fid": 109, "addr:street": "Mail François Mitterrand", "amenity": "bicycle_rental", "capacity": "28", "name": "Chèques Postaux", "nom_festival": "Le grand soufflet" }, "geometry": { "type": "Point", "coordinates": [ -1.6933525, 48.1087599 ] } },
{ "type": "Feature", "properties": { "fid": 109, "addr:street": "Mail François Mitterrand", "amenity": "bicycle_rental", "capacity": "28", "name": "Chèques Postaux", "nom_festival": "Mythos" }, "geometry": { "type": "Point", "coordinates": [ -1.6933525, 48.1087599 ] } },
{ "type": "Feature", "properties": { "fid": 109, "addr:street": "Mail François Mitterrand", "amenity": "bicycle_rental", "capacity": "28", "name": "Chèques Postaux", "nom_festival": "Festival tnb" }, "geometry": { "type": "Point", "coordinates": [ -1.6933525, 48.1087599 ] } },
{ "type": "Feature", "properties": { "fid": 109, "addr:street": "Mail François Mitterrand", "amenity": "bicycle_rental", "capacity": "28", "name": "Chèques Postaux", "nom_festival": "Les tombees de la nuit" }, "geometry": { "type": "Point", "coordinates": [ -1.6933525, 48.1087599 ] } },
{ "type": "Feature", "properties": { "fid": 109, "addr:street": "Mail François Mitterrand", "amenity": "bicycle_rental", "capacity": "28", "name": "Chèques Postaux", "nom_festival": "I'm from rennes (site du thabord)" }, "geometry": { "type": "Point", "coordinates": [ -1.6933525, 48.1087599 ] } },
{ "type": "Feature", "properties": { "fid": 109, "addr:street": "Mail François Mitterrand", "amenity": "bicycle_rental", "capacity": "28", "name": "Chèques Postaux", "nom_festival": "Made festival" }, "geometry": { "type": "Point", "coordinates": [ -1.6933525, 48.1087599 ] } },
{ "type": "Feature", "properties": { "fid": 110, "addr:street": "Rue Victor Hugo", "amenity": "bicycle_rental", "capacity": "18", "name": "Saint-Georges  Piscine", "nom_festival": "Sevenadur" }, "geometry": { "type": "Point", "coordinates": [ -1.674417, 48.112385 ] } },
{ "type": "Feature", "properties": { "fid": 110, "addr:street": "Rue Victor Hugo", "amenity": "bicycle_rental", "capacity": "18", "name": "Saint-Georges  Piscine", "nom_festival": "Les rencontres trans musicales de rennes" }, "geometry": { "type": "Point", "coordinates": [ -1.674417, 48.112385 ] } },
{ "type": "Feature", "properties": { "fid": 110, "addr:street": "Rue Victor Hugo", "amenity": "bicycle_rental", "capacity": "18", "name": "Saint-Georges  Piscine", "nom_festival": "Transat en ville" }, "geometry": { "type": "Point", "coordinates": [ -1.674417, 48.112385 ] } },
{ "type": "Feature", "properties": { "fid": 110, "addr:street": "Rue Victor Hugo", "amenity": "bicycle_rental", "capacity": "18", "name": "Saint-Georges  Piscine", "nom_festival": "Jardins d'hiver" }, "geometry": { "type": "Point", "coordinates": [ -1.674417, 48.112385 ] } },
{ "type": "Feature", "properties": { "fid": 110, "addr:street": "Rue Victor Hugo", "amenity": "bicycle_rental", "capacity": "18", "name": "Saint-Georges  Piscine", "nom_festival": "Le grand soufflet" }, "geometry": { "type": "Point", "coordinates": [ -1.674417, 48.112385 ] } },
{ "type": "Feature", "properties": { "fid": 110, "addr:street": "Rue Victor Hugo", "amenity": "bicycle_rental", "capacity": "18", "name": "Saint-Georges  Piscine", "nom_festival": "Festival rue des livres" }, "geometry": { "type": "Point", "coordinates": [ -1.674417, 48.112385 ] } },
{ "type": "Feature", "properties": { "fid": 110, "addr:street": "Rue Victor Hugo", "amenity": "bicycle_rental", "capacity": "18", "name": "Saint-Georges  Piscine", "nom_festival": "Mythos" }, "geometry": { "type": "Point", "coordinates": [ -1.674417, 48.112385 ] } },
{ "type": "Feature", "properties": { "fid": 110, "addr:street": "Rue Victor Hugo", "amenity": "bicycle_rental", "capacity": "18", "name": "Saint-Georges  Piscine", "nom_festival": "Festival tnb" }, "geometry": { "type": "Point", "coordinates": [ -1.674417, 48.112385 ] } },
{ "type": "Feature", "properties": { "fid": 110, "addr:street": "Rue Victor Hugo", "amenity": "bicycle_rental", "capacity": "18", "name": "Saint-Georges  Piscine", "nom_festival": "Les tombees de la nuit" }, "geometry": { "type": "Point", "coordinates": [ -1.674417, 48.112385 ] } },
{ "type": "Feature", "properties": { "fid": 110, "addr:street": "Rue Victor Hugo", "amenity": "bicycle_rental", "capacity": "18", "name": "Saint-Georges  Piscine", "nom_festival": "I'm from rennes (site du thabord)" }, "geometry": { "type": "Point", "coordinates": [ -1.674417, 48.112385 ] } },
{ "type": "Feature", "properties": { "fid": 110, "addr:street": "Rue Victor Hugo", "amenity": "bicycle_rental", "capacity": "18", "name": "Saint-Georges  Piscine", "nom_festival": "Made festival" }, "geometry": { "type": "Point", "coordinates": [ -1.674417, 48.112385 ] } },
{ "type": "Feature", "properties": { "fid": 111, "addr:street": "Rue de Plélo", "amenity": "bicycle_rental", "capacity": "24", "name": "Colombier", "nom_festival": "Festival agrock" }, "geometry": { "type": "Point", "coordinates": [ -1.6805393, 48.1060428 ] } },
{ "type": "Feature", "properties": { "fid": 111, "addr:street": "Rue de Plélo", "amenity": "bicycle_rental", "capacity": "24", "name": "Colombier", "nom_festival": "Les rencontres trans musicales de rennes" }, "geometry": { "type": "Point", "coordinates": [ -1.6805393, 48.1060428 ] } },
{ "type": "Feature", "properties": { "fid": 111, "addr:street": "Rue de Plélo", "amenity": "bicycle_rental", "capacity": "24", "name": "Colombier", "nom_festival": "Transat en ville" }, "geometry": { "type": "Point", "coordinates": [ -1.6805393, 48.1060428 ] } },
{ "type": "Feature", "properties": { "fid": 111, "addr:street": "Rue de Plélo", "amenity": "bicycle_rental", "capacity": "24", "name": "Colombier", "nom_festival": "Jardins d'hiver" }, "geometry": { "type": "Point", "coordinates": [ -1.6805393, 48.1060428 ] } },
{ "type": "Feature", "properties": { "fid": 111, "addr:street": "Rue de Plélo", "amenity": "bicycle_rental", "capacity": "24", "name": "Colombier", "nom_festival": "Le grand soufflet" }, "geometry": { "type": "Point", "coordinates": [ -1.6805393, 48.1060428 ] } },
{ "type": "Feature", "properties": { "fid": 111, "addr:street": "Rue de Plélo", "amenity": "bicycle_rental", "capacity": "24", "name": "Colombier", "nom_festival": "Mythos" }, "geometry": { "type": "Point", "coordinates": [ -1.6805393, 48.1060428 ] } },
{ "type": "Feature", "properties": { "fid": 111, "addr:street": "Rue de Plélo", "amenity": "bicycle_rental", "capacity": "24", "name": "Colombier", "nom_festival": "Festival tnb" }, "geometry": { "type": "Point", "coordinates": [ -1.6805393, 48.1060428 ] } },
{ "type": "Feature", "properties": { "fid": 111, "addr:street": "Rue de Plélo", "amenity": "bicycle_rental", "capacity": "24", "name": "Colombier", "nom_festival": "Les tombees de la nuit" }, "geometry": { "type": "Point", "coordinates": [ -1.6805393, 48.1060428 ] } },
{ "type": "Feature", "properties": { "fid": 111, "addr:street": "Rue de Plélo", "amenity": "bicycle_rental", "capacity": "24", "name": "Colombier", "nom_festival": "I'm from rennes (site du thabord)" }, "geometry": { "type": "Point", "coordinates": [ -1.6805393, 48.1060428 ] } },
{ "type": "Feature", "properties": { "fid": 111, "addr:street": "Rue de Plélo", "amenity": "bicycle_rental", "capacity": "24", "name": "Colombier", "nom_festival": "Made festival" }, "geometry": { "type": "Point", "coordinates": [ -1.6805393, 48.1060428 ] } },
{ "type": "Feature", "properties": { "fid": 112, "addr:street": "Cours des Alliés", "amenity": "bicycle_rental", "capacity": "24", "name": "Charles de Gaulle", "nom_festival": "Les rencontres trans musicales de rennes" }, "geometry": { "type": "Point", "coordinates": [ -1.677122, 48.10511 ] } },
{ "type": "Feature", "properties": { "fid": 112, "addr:street": "Cours des Alliés", "amenity": "bicycle_rental", "capacity": "24", "name": "Charles de Gaulle", "nom_festival": "Transat en ville" }, "geometry": { "type": "Point", "coordinates": [ -1.677122, 48.10511 ] } },
{ "type": "Feature", "properties": { "fid": 112, "addr:street": "Cours des Alliés", "amenity": "bicycle_rental", "capacity": "24", "name": "Charles de Gaulle", "nom_festival": "Jardins d'hiver" }, "geometry": { "type": "Point", "coordinates": [ -1.677122, 48.10511 ] } },
{ "type": "Feature", "properties": { "fid": 112, "addr:street": "Cours des Alliés", "amenity": "bicycle_rental", "capacity": "24", "name": "Charles de Gaulle", "nom_festival": "Le grand soufflet" }, "geometry": { "type": "Point", "coordinates": [ -1.677122, 48.10511 ] } },
{ "type": "Feature", "properties": { "fid": 112, "addr:street": "Cours des Alliés", "amenity": "bicycle_rental", "capacity": "24", "name": "Charles de Gaulle", "nom_festival": "Mythos" }, "geometry": { "type": "Point", "coordinates": [ -1.677122, 48.10511 ] } },
{ "type": "Feature", "properties": { "fid": 112, "addr:street": "Cours des Alliés", "amenity": "bicycle_rental", "capacity": "24", "name": "Charles de Gaulle", "nom_festival": "Festival tnb" }, "geometry": { "type": "Point", "coordinates": [ -1.677122, 48.10511 ] } },
{ "type": "Feature", "properties": { "fid": 112, "addr:street": "Cours des Alliés", "amenity": "bicycle_rental", "capacity": "24", "name": "Charles de Gaulle", "nom_festival": "Les tombees de la nuit" }, "geometry": { "type": "Point", "coordinates": [ -1.677122, 48.10511 ] } },
{ "type": "Feature", "properties": { "fid": 112, "addr:street": "Cours des Alliés", "amenity": "bicycle_rental", "capacity": "24", "name": "Charles de Gaulle", "nom_festival": "I'm from rennes (site du thabord)" }, "geometry": { "type": "Point", "coordinates": [ -1.677122, 48.10511 ] } },
{ "type": "Feature", "properties": { "fid": 112, "addr:street": "Cours des Alliés", "amenity": "bicycle_rental", "capacity": "24", "name": "Charles de Gaulle", "nom_festival": "Made festival" }, "geometry": { "type": "Point", "coordinates": [ -1.677122, 48.10511 ] } },
{ "type": "Feature", "properties": { "fid": 113, "addr:street": "Place Sainte-Anne", "amenity": "bicycle_rental", "capacity": "24", "name": "Sainte-Anne", "nom_festival": "Festival agrock" }, "geometry": { "type": "Point", "coordinates": [ -1.6804763, 48.1142022 ] } },
{ "type": "Feature", "properties": { "fid": 113, "addr:street": "Place Sainte-Anne", "amenity": "bicycle_rental", "capacity": "24", "name": "Sainte-Anne", "nom_festival": "Sevenadur" }, "geometry": { "type": "Point", "coordinates": [ -1.6804763, 48.1142022 ] } },
{ "type": "Feature", "properties": { "fid": 113, "addr:street": "Place Sainte-Anne", "amenity": "bicycle_rental", "capacity": "24", "name": "Sainte-Anne", "nom_festival": "Les rencontres trans musicales de rennes" }, "geometry": { "type": "Point", "coordinates": [ -1.6804763, 48.1142022 ] } },
{ "type": "Feature", "properties": { "fid": 113, "addr:street": "Place Sainte-Anne", "amenity": "bicycle_rental", "capacity": "24", "name": "Sainte-Anne", "nom_festival": "Transat en ville" }, "geometry": { "type": "Point", "coordinates": [ -1.6804763, 48.1142022 ] } },
{ "type": "Feature", "properties": { "fid": 113, "addr:street": "Place Sainte-Anne", "amenity": "bicycle_rental", "capacity": "24", "name": "Sainte-Anne", "nom_festival": "Festival yaouank" }, "geometry": { "type": "Point", "coordinates": [ -1.6804763, 48.1142022 ] } },
{ "type": "Feature", "properties": { "fid": 113, "addr:street": "Place Sainte-Anne", "amenity": "bicycle_rental", "capacity": "24", "name": "Sainte-Anne", "nom_festival": "Jardins d'hiver" }, "geometry": { "type": "Point", "coordinates": [ -1.6804763, 48.1142022 ] } },
{ "type": "Feature", "properties": { "fid": 113, "addr:street": "Place Sainte-Anne", "amenity": "bicycle_rental", "capacity": "24", "name": "Sainte-Anne", "nom_festival": "Le grand soufflet" }, "geometry": { "type": "Point", "coordinates": [ -1.6804763, 48.1142022 ] } },
{ "type": "Feature", "properties": { "fid": 113, "addr:street": "Place Sainte-Anne", "amenity": "bicycle_rental", "capacity": "24", "name": "Sainte-Anne", "nom_festival": "Festival rue des livres" }, "geometry": { "type": "Point", "coordinates": [ -1.6804763, 48.1142022 ] } },
{ "type": "Feature", "properties": { "fid": 113, "addr:street": "Place Sainte-Anne", "amenity": "bicycle_rental", "capacity": "24", "name": "Sainte-Anne", "nom_festival": "Mythos" }, "geometry": { "type": "Point", "coordinates": [ -1.6804763, 48.1142022 ] } },
{ "type": "Feature", "properties": { "fid": 113, "addr:street": "Place Sainte-Anne", "amenity": "bicycle_rental", "capacity": "24", "name": "Sainte-Anne", "nom_festival": "Festival tnb" }, "geometry": { "type": "Point", "coordinates": [ -1.6804763, 48.1142022 ] } },
{ "type": "Feature", "properties": { "fid": 113, "addr:street": "Place Sainte-Anne", "amenity": "bicycle_rental", "capacity": "24", "name": "Sainte-Anne", "nom_festival": "Les tombees de la nuit" }, "geometry": { "type": "Point", "coordinates": [ -1.6804763, 48.1142022 ] } },
{ "type": "Feature", "properties": { "fid": 113, "addr:street": "Place Sainte-Anne", "amenity": "bicycle_rental", "capacity": "24", "name": "Sainte-Anne", "nom_festival": "I'm from rennes (site du thabord)" }, "geometry": { "type": "Point", "coordinates": [ -1.6804763, 48.1142022 ] } },
{ "type": "Feature", "properties": { "fid": 113, "addr:street": "Place Sainte-Anne", "amenity": "bicycle_rental", "capacity": "24", "name": "Sainte-Anne", "nom_festival": "Made festival" }, "geometry": { "type": "Point", "coordinates": [ -1.6804763, 48.1142022 ] } },
{ "type": "Feature", "properties": { "fid": 114, "addr:street": "Rue Gutenberg", "amenity": "bicycle_rental", "capacity": "28", "name": "Oberthur", "nom_festival": "Les rencontres trans musicales de rennes" }, "geometry": { "type": "Point", "coordinates": [ -1.6618542, 48.1135478 ] } },
{ "type": "Feature", "properties": { "fid": 114, "addr:street": "Rue Gutenberg", "amenity": "bicycle_rental", "capacity": "28", "name": "Oberthur", "nom_festival": "Transat en ville" }, "geometry": { "type": "Point", "coordinates": [ -1.6618542, 48.1135478 ] } },
{ "type": "Feature", "properties": { "fid": 114, "addr:street": "Rue Gutenberg", "amenity": "bicycle_rental", "capacity": "28", "name": "Oberthur", "nom_festival": "Jardins d'hiver" }, "geometry": { "type": "Point", "coordinates": [ -1.6618542, 48.1135478 ] } },
{ "type": "Feature", "properties": { "fid": 114, "addr:street": "Rue Gutenberg", "amenity": "bicycle_rental", "capacity": "28", "name": "Oberthur", "nom_festival": "Le grand soufflet" }, "geometry": { "type": "Point", "coordinates": [ -1.6618542, 48.1135478 ] } },
{ "type": "Feature", "properties": { "fid": 114, "addr:street": "Rue Gutenberg", "amenity": "bicycle_rental", "capacity": "28", "name": "Oberthur", "nom_festival": "Marmaille" }, "geometry": { "type": "Point", "coordinates": [ -1.6618542, 48.1135478 ] } },
{ "type": "Feature", "properties": { "fid": 114, "addr:street": "Rue Gutenberg", "amenity": "bicycle_rental", "capacity": "28", "name": "Oberthur", "nom_festival": "Rock'n solex" }, "geometry": { "type": "Point", "coordinates": [ -1.6618542, 48.1135478 ] } },
{ "type": "Feature", "properties": { "fid": 114, "addr:street": "Rue Gutenberg", "amenity": "bicycle_rental", "capacity": "28", "name": "Oberthur", "nom_festival": "Festival rue des livres" }, "geometry": { "type": "Point", "coordinates": [ -1.6618542, 48.1135478 ] } },
{ "type": "Feature", "properties": { "fid": 114, "addr:street": "Rue Gutenberg", "amenity": "bicycle_rental", "capacity": "28", "name": "Oberthur", "nom_festival": "Mythos" }, "geometry": { "type": "Point", "coordinates": [ -1.6618542, 48.1135478 ] } },
{ "type": "Feature", "properties": { "fid": 114, "addr:street": "Rue Gutenberg", "amenity": "bicycle_rental", "capacity": "28", "name": "Oberthur", "nom_festival": "Festival tnb" }, "geometry": { "type": "Point", "coordinates": [ -1.6618542, 48.1135478 ] } },
{ "type": "Feature", "properties": { "fid": 114, "addr:street": "Rue Gutenberg", "amenity": "bicycle_rental", "capacity": "28", "name": "Oberthur", "nom_festival": "Les tombees de la nuit" }, "geometry": { "type": "Point", "coordinates": [ -1.6618542, 48.1135478 ] } },
{ "type": "Feature", "properties": { "fid": 114, "addr:street": "Rue Gutenberg", "amenity": "bicycle_rental", "capacity": "28", "name": "Oberthur", "nom_festival": "I'm from rennes (site du thabord)" }, "geometry": { "type": "Point", "coordinates": [ -1.6618542, 48.1135478 ] } },
{ "type": "Feature", "properties": { "fid": 114, "addr:street": "Rue Gutenberg", "amenity": "bicycle_rental", "capacity": "28", "name": "Oberthur", "nom_festival": "Made festival" }, "geometry": { "type": "Point", "coordinates": [ -1.6618542, 48.1135478 ] } },
{ "type": "Feature", "properties": { "fid": 115, "addr:street": "Boulevard Jacques Cartier", "amenity": "bicycle_rental", "capacity": "24", "name": "Jacques Cartier", "nom_festival": "Les rencontres trans musicales de rennes" }, "geometry": { "type": "Point", "coordinates": [ -1.6747311, 48.0975201 ] } },
{ "type": "Feature", "properties": { "fid": 115, "addr:street": "Boulevard Jacques Cartier", "amenity": "bicycle_rental", "capacity": "24", "name": "Jacques Cartier", "nom_festival": "Transat en ville" }, "geometry": { "type": "Point", "coordinates": [ -1.6747311, 48.0975201 ] } },
{ "type": "Feature", "properties": { "fid": 115, "addr:street": "Boulevard Jacques Cartier", "amenity": "bicycle_rental", "capacity": "24", "name": "Jacques Cartier", "nom_festival": "Jardins d'hiver" }, "geometry": { "type": "Point", "coordinates": [ -1.6747311, 48.0975201 ] } },
{ "type": "Feature", "properties": { "fid": 115, "addr:street": "Boulevard Jacques Cartier", "amenity": "bicycle_rental", "capacity": "24", "name": "Jacques Cartier", "nom_festival": "Le grand soufflet" }, "geometry": { "type": "Point", "coordinates": [ -1.6747311, 48.0975201 ] } },
{ "type": "Feature", "properties": { "fid": 115, "addr:street": "Boulevard Jacques Cartier", "amenity": "bicycle_rental", "capacity": "24", "name": "Jacques Cartier", "nom_festival": "Mythos" }, "geometry": { "type": "Point", "coordinates": [ -1.6747311, 48.0975201 ] } },
{ "type": "Feature", "properties": { "fid": 115, "addr:street": "Boulevard Jacques Cartier", "amenity": "bicycle_rental", "capacity": "24", "name": "Jacques Cartier", "nom_festival": "Festival tnb" }, "geometry": { "type": "Point", "coordinates": [ -1.6747311, 48.0975201 ] } },
{ "type": "Feature", "properties": { "fid": 115, "addr:street": "Boulevard Jacques Cartier", "amenity": "bicycle_rental", "capacity": "24", "name": "Jacques Cartier", "nom_festival": "Les tombees de la nuit" }, "geometry": { "type": "Point", "coordinates": [ -1.6747311, 48.0975201 ] } },
{ "type": "Feature", "properties": { "fid": 115, "addr:street": "Boulevard Jacques Cartier", "amenity": "bicycle_rental", "capacity": "24", "name": "Jacques Cartier", "nom_festival": "I'm from rennes (site du thabord)" }, "geometry": { "type": "Point", "coordinates": [ -1.6747311, 48.0975201 ] } },
{ "type": "Feature", "properties": { "fid": 115, "addr:street": "Boulevard Jacques Cartier", "amenity": "bicycle_rental", "capacity": "24", "name": "Jacques Cartier", "nom_festival": "Made festival" }, "geometry": { "type": "Point", "coordinates": [ -1.6747311, 48.0975201 ] } },
{ "type": "Feature", "properties": { "fid": 116, "addr:street": "Cours des Alliés", "amenity": "bicycle_rental", "capacity": "24", "name": "Champs Libres", "nom_festival": "Les rencontres trans musicales de rennes" }, "geometry": { "type": "Point", "coordinates": [ -1.674394, 48.10553 ] } },
{ "type": "Feature", "properties": { "fid": 116, "addr:street": "Cours des Alliés", "amenity": "bicycle_rental", "capacity": "24", "name": "Champs Libres", "nom_festival": "Transat en ville" }, "geometry": { "type": "Point", "coordinates": [ -1.674394, 48.10553 ] } },
{ "type": "Feature", "properties": { "fid": 116, "addr:street": "Cours des Alliés", "amenity": "bicycle_rental", "capacity": "24", "name": "Champs Libres", "nom_festival": "Jardins d'hiver" }, "geometry": { "type": "Point", "coordinates": [ -1.674394, 48.10553 ] } },
{ "type": "Feature", "properties": { "fid": 116, "addr:street": "Cours des Alliés", "amenity": "bicycle_rental", "capacity": "24", "name": "Champs Libres", "nom_festival": "Le grand soufflet" }, "geometry": { "type": "Point", "coordinates": [ -1.674394, 48.10553 ] } },
{ "type": "Feature", "properties": { "fid": 116, "addr:street": "Cours des Alliés", "amenity": "bicycle_rental", "capacity": "24", "name": "Champs Libres", "nom_festival": "Mythos" }, "geometry": { "type": "Point", "coordinates": [ -1.674394, 48.10553 ] } },
{ "type": "Feature", "properties": { "fid": 116, "addr:street": "Cours des Alliés", "amenity": "bicycle_rental", "capacity": "24", "name": "Champs Libres", "nom_festival": "Festival tnb" }, "geometry": { "type": "Point", "coordinates": [ -1.674394, 48.10553 ] } },
{ "type": "Feature", "properties": { "fid": 116, "addr:street": "Cours des Alliés", "amenity": "bicycle_rental", "capacity": "24", "name": "Champs Libres", "nom_festival": "Les tombees de la nuit" }, "geometry": { "type": "Point", "coordinates": [ -1.674394, 48.10553 ] } },
{ "type": "Feature", "properties": { "fid": 116, "addr:street": "Cours des Alliés", "amenity": "bicycle_rental", "capacity": "24", "name": "Champs Libres", "nom_festival": "I'm from rennes (site du thabord)" }, "geometry": { "type": "Point", "coordinates": [ -1.674394, 48.10553 ] } },
{ "type": "Feature", "properties": { "fid": 116, "addr:street": "Cours des Alliés", "amenity": "bicycle_rental", "capacity": "24", "name": "Champs Libres", "nom_festival": "Made festival" }, "geometry": { "type": "Point", "coordinates": [ -1.674394, 48.10553 ] } },
{ "type": "Feature", "properties": { "fid": 117, "addr:street": "Quai Lamartine", "amenity": "bicycle_rental", "capacity": "45", "name": "République", "nom_festival": "Festival agrock" }, "geometry": { "type": "Point", "coordinates": [ -1.6780446, 48.1100523 ] } },
{ "type": "Feature", "properties": { "fid": 117, "addr:street": "Quai Lamartine", "amenity": "bicycle_rental", "capacity": "45", "name": "République", "nom_festival": "Sevenadur" }, "geometry": { "type": "Point", "coordinates": [ -1.6780446, 48.1100523 ] } },
{ "type": "Feature", "properties": { "fid": 117, "addr:street": "Quai Lamartine", "amenity": "bicycle_rental", "capacity": "45", "name": "République", "nom_festival": "Les rencontres trans musicales de rennes" }, "geometry": { "type": "Point", "coordinates": [ -1.6780446, 48.1100523 ] } },
{ "type": "Feature", "properties": { "fid": 117, "addr:street": "Quai Lamartine", "amenity": "bicycle_rental", "capacity": "45", "name": "République", "nom_festival": "Transat en ville" }, "geometry": { "type": "Point", "coordinates": [ -1.6780446, 48.1100523 ] } },
{ "type": "Feature", "properties": { "fid": 117, "addr:street": "Quai Lamartine", "amenity": "bicycle_rental", "capacity": "45", "name": "République", "nom_festival": "Jardins d'hiver" }, "geometry": { "type": "Point", "coordinates": [ -1.6780446, 48.1100523 ] } },
{ "type": "Feature", "properties": { "fid": 117, "addr:street": "Quai Lamartine", "amenity": "bicycle_rental", "capacity": "45", "name": "République", "nom_festival": "Le grand soufflet" }, "geometry": { "type": "Point", "coordinates": [ -1.6780446, 48.1100523 ] } },
{ "type": "Feature", "properties": { "fid": 117, "addr:street": "Quai Lamartine", "amenity": "bicycle_rental", "capacity": "45", "name": "République", "nom_festival": "Festival rue des livres" }, "geometry": { "type": "Point", "coordinates": [ -1.6780446, 48.1100523 ] } },
{ "type": "Feature", "properties": { "fid": 117, "addr:street": "Quai Lamartine", "amenity": "bicycle_rental", "capacity": "45", "name": "République", "nom_festival": "Mythos" }, "geometry": { "type": "Point", "coordinates": [ -1.6780446, 48.1100523 ] } },
{ "type": "Feature", "properties": { "fid": 117, "addr:street": "Quai Lamartine", "amenity": "bicycle_rental", "capacity": "45", "name": "République", "nom_festival": "Festival tnb" }, "geometry": { "type": "Point", "coordinates": [ -1.6780446, 48.1100523 ] } },
{ "type": "Feature", "properties": { "fid": 117, "addr:street": "Quai Lamartine", "amenity": "bicycle_rental", "capacity": "45", "name": "République", "nom_festival": "Les tombees de la nuit" }, "geometry": { "type": "Point", "coordinates": [ -1.6780446, 48.1100523 ] } },
{ "type": "Feature", "properties": { "fid": 117, "addr:street": "Quai Lamartine", "amenity": "bicycle_rental", "capacity": "45", "name": "République", "nom_festival": "I'm from rennes (site du thabord)" }, "geometry": { "type": "Point", "coordinates": [ -1.6780446, 48.1100523 ] } },
{ "type": "Feature", "properties": { "fid": 117, "addr:street": "Quai Lamartine", "amenity": "bicycle_rental", "capacity": "45", "name": "République", "nom_festival": "Made festival" }, "geometry": { "type": "Point", "coordinates": [ -1.6780446, 48.1100523 ] } },
{ "type": "Feature", "properties": { "fid": 118, "addr:street": "Rue André Rouault", "amenity": "bicycle_rental", "capacity": "16", "name": "Binquenais", "nom_festival": "Jardins d'hiver" }, "geometry": { "type": "Point", "coordinates": [ -1.6673, 48.091568 ] } },
{ "type": "Feature", "properties": { "fid": 118, "addr:street": "Rue André Rouault", "amenity": "bicycle_rental", "capacity": "16", "name": "Binquenais", "nom_festival": "Dooinit festival" }, "geometry": { "type": "Point", "coordinates": [ -1.6673, 48.091568 ] } },
{ "type": "Feature", "properties": { "fid": 118, "addr:street": "Rue André Rouault", "amenity": "bicycle_rental", "capacity": "16", "name": "Binquenais", "nom_festival": "Ballade avec brassens" }, "geometry": { "type": "Point", "coordinates": [ -1.6673, 48.091568 ] } },
{ "type": "Feature", "properties": { "fid": 118, "addr:street": "Rue André Rouault", "amenity": "bicycle_rental", "capacity": "16", "name": "Binquenais", "nom_festival": "Festival tnb" }, "geometry": { "type": "Point", "coordinates": [ -1.6673, 48.091568 ] } },
{ "type": "Feature", "properties": { "fid": 119, "addr:street": "Boulevard Émile Combes", "amenity": "bicycle_rental", "capacity": "12", "name": "Sainte-Thérèse", "nom_festival": "Jardins d'hiver" }, "geometry": { "type": "Point", "coordinates": [ -1.663705, 48.094994 ] } },
{ "type": "Feature", "properties": { "fid": 119, "addr:street": "Boulevard Émile Combes", "amenity": "bicycle_rental", "capacity": "12", "name": "Sainte-Thérèse", "nom_festival": "Dooinit festival" }, "geometry": { "type": "Point", "coordinates": [ -1.663705, 48.094994 ] } },
{ "type": "Feature", "properties": { "fid": 119, "addr:street": "Boulevard Émile Combes", "amenity": "bicycle_rental", "capacity": "12", "name": "Sainte-Thérèse", "nom_festival": "Ballade avec brassens" }, "geometry": { "type": "Point", "coordinates": [ -1.663705, 48.094994 ] } },
{ "type": "Feature", "properties": { "fid": 119, "addr:street": "Boulevard Émile Combes", "amenity": "bicycle_rental", "capacity": "12", "name": "Sainte-Thérèse", "nom_festival": "Festival tnb" }, "geometry": { "type": "Point", "coordinates": [ -1.663705, 48.094994 ] } },
{ "type": "Feature", "properties": { "fid": 120, "addr:street": "Rue Louis Guilloux", "amenity": "bicycle_rental", "capacity": "20", "name": "Marbeuf", "nom_festival": "Festival agrock" }, "geometry": { "type": "Point", "coordinates": [ -1.702033, 48.111725 ] } },
{ "type": "Feature", "properties": { "fid": 120, "addr:street": "Rue Louis Guilloux", "amenity": "bicycle_rental", "capacity": "20", "name": "Marbeuf", "nom_festival": "Sevenadur" }, "geometry": { "type": "Point", "coordinates": [ -1.702033, 48.111725 ] } },
{ "type": "Feature", "properties": { "fid": 120, "addr:street": "Rue Louis Guilloux", "amenity": "bicycle_rental", "capacity": "20", "name": "Marbeuf", "nom_festival": "Les rencontres trans musicales de rennes" }, "geometry": { "type": "Point", "coordinates": [ -1.702033, 48.111725 ] } },
{ "type": "Feature", "properties": { "fid": 120, "addr:street": "Rue Louis Guilloux", "amenity": "bicycle_rental", "capacity": "20", "name": "Marbeuf", "nom_festival": "Transat en ville" }, "geometry": { "type": "Point", "coordinates": [ -1.702033, 48.111725 ] } },
{ "type": "Feature", "properties": { "fid": 120, "addr:street": "Rue Louis Guilloux", "amenity": "bicycle_rental", "capacity": "20", "name": "Marbeuf", "nom_festival": "Le grand soufflet" }, "geometry": { "type": "Point", "coordinates": [ -1.702033, 48.111725 ] } },
{ "type": "Feature", "properties": { "fid": 120, "addr:street": "Rue Louis Guilloux", "amenity": "bicycle_rental", "capacity": "20", "name": "Marbeuf", "nom_festival": "Festival tnb" }, "geometry": { "type": "Point", "coordinates": [ -1.702033, 48.111725 ] } },
{ "type": "Feature", "properties": { "fid": 120, "addr:street": "Rue Louis Guilloux", "amenity": "bicycle_rental", "capacity": "20", "name": "Marbeuf", "nom_festival": "Les tombees de la nuit" }, "geometry": { "type": "Point", "coordinates": [ -1.702033, 48.111725 ] } },
{ "type": "Feature", "properties": { "fid": 120, "addr:street": "Rue Louis Guilloux", "amenity": "bicycle_rental", "capacity": "20", "name": "Marbeuf", "nom_festival": "I'm from rennes (site du thabord)" }, "geometry": { "type": "Point", "coordinates": [ -1.702033, 48.111725 ] } },
{ "type": "Feature", "properties": { "fid": 120, "addr:street": "Rue Louis Guilloux", "amenity": "bicycle_rental", "capacity": "20", "name": "Marbeuf", "nom_festival": "Made festival" }, "geometry": { "type": "Point", "coordinates": [ -1.702033, 48.111725 ] } },
{ "type": "Feature", "properties": { "fid": 121, "addr:street": "Place de Bretagne", "amenity": "bicycle_rental", "capacity": "40", "name": "Place de Bretagne", "nom_festival": "Festival agrock" }, "geometry": { "type": "Point", "coordinates": [ -1.6841176, 48.1096669 ] } },
{ "type": "Feature", "properties": { "fid": 121, "addr:street": "Place de Bretagne", "amenity": "bicycle_rental", "capacity": "40", "name": "Place de Bretagne", "nom_festival": "Sevenadur" }, "geometry": { "type": "Point", "coordinates": [ -1.6841176, 48.1096669 ] } },
{ "type": "Feature", "properties": { "fid": 121, "addr:street": "Place de Bretagne", "amenity": "bicycle_rental", "capacity": "40", "name": "Place de Bretagne", "nom_festival": "Les rencontres trans musicales de rennes" }, "geometry": { "type": "Point", "coordinates": [ -1.6841176, 48.1096669 ] } },
{ "type": "Feature", "properties": { "fid": 121, "addr:street": "Place de Bretagne", "amenity": "bicycle_rental", "capacity": "40", "name": "Place de Bretagne", "nom_festival": "Transat en ville" }, "geometry": { "type": "Point", "coordinates": [ -1.6841176, 48.1096669 ] } },
{ "type": "Feature", "properties": { "fid": 121, "addr:street": "Place de Bretagne", "amenity": "bicycle_rental", "capacity": "40", "name": "Place de Bretagne", "nom_festival": "Jardins d'hiver" }, "geometry": { "type": "Point", "coordinates": [ -1.6841176, 48.1096669 ] } },
{ "type": "Feature", "properties": { "fid": 121, "addr:street": "Place de Bretagne", "amenity": "bicycle_rental", "capacity": "40", "name": "Place de Bretagne", "nom_festival": "Le grand soufflet" }, "geometry": { "type": "Point", "coordinates": [ -1.6841176, 48.1096669 ] } },
{ "type": "Feature", "properties": { "fid": 121, "addr:street": "Place de Bretagne", "amenity": "bicycle_rental", "capacity": "40", "name": "Place de Bretagne", "nom_festival": "Mythos" }, "geometry": { "type": "Point", "coordinates": [ -1.6841176, 48.1096669 ] } },
{ "type": "Feature", "properties": { "fid": 121, "addr:street": "Place de Bretagne", "amenity": "bicycle_rental", "capacity": "40", "name": "Place de Bretagne", "nom_festival": "Festival tnb" }, "geometry": { "type": "Point", "coordinates": [ -1.6841176, 48.1096669 ] } },
{ "type": "Feature", "properties": { "fid": 121, "addr:street": "Place de Bretagne", "amenity": "bicycle_rental", "capacity": "40", "name": "Place de Bretagne", "nom_festival": "Les tombees de la nuit" }, "geometry": { "type": "Point", "coordinates": [ -1.6841176, 48.1096669 ] } },
{ "type": "Feature", "properties": { "fid": 121, "addr:street": "Place de Bretagne", "amenity": "bicycle_rental", "capacity": "40", "name": "Place de Bretagne", "nom_festival": "I'm from rennes (site du thabord)" }, "geometry": { "type": "Point", "coordinates": [ -1.6841176, 48.1096669 ] } },
{ "type": "Feature", "properties": { "fid": 121, "addr:street": "Place de Bretagne", "amenity": "bicycle_rental", "capacity": "40", "name": "Place de Bretagne", "nom_festival": "Made festival" }, "geometry": { "type": "Point", "coordinates": [ -1.6841176, 48.1096669 ] } },
{ "type": "Feature", "properties": { "fid": 122, "addr:street": "Avenue du 41ème Régiment d'Infanterie", "amenity": "bicycle_rental", "capacity": "28", "name": "Anatole France", "nom_festival": "Festival agrock" }, "geometry": { "type": "Point", "coordinates": [ -1.686405, 48.117985 ] } },
{ "type": "Feature", "properties": { "fid": 122, "addr:street": "Avenue du 41ème Régiment d'Infanterie", "amenity": "bicycle_rental", "capacity": "28", "name": "Anatole France", "nom_festival": "Big love" }, "geometry": { "type": "Point", "coordinates": [ -1.686405, 48.117985 ] } },
{ "type": "Feature", "properties": { "fid": 122, "addr:street": "Avenue du 41ème Régiment d'Infanterie", "amenity": "bicycle_rental", "capacity": "28", "name": "Anatole France", "nom_festival": "Sevenadur" }, "geometry": { "type": "Point", "coordinates": [ -1.686405, 48.117985 ] } },
{ "type": "Feature", "properties": { "fid": 122, "addr:street": "Avenue du 41ème Régiment d'Infanterie", "amenity": "bicycle_rental", "capacity": "28", "name": "Anatole France", "nom_festival": "Les rencontres trans musicales de rennes" }, "geometry": { "type": "Point", "coordinates": [ -1.686405, 48.117985 ] } },
{ "type": "Feature", "properties": { "fid": 122, "addr:street": "Avenue du 41ème Régiment d'Infanterie", "amenity": "bicycle_rental", "capacity": "28", "name": "Anatole France", "nom_festival": "Transat en ville" }, "geometry": { "type": "Point", "coordinates": [ -1.686405, 48.117985 ] } },
{ "type": "Feature", "properties": { "fid": 122, "addr:street": "Avenue du 41ème Régiment d'Infanterie", "amenity": "bicycle_rental", "capacity": "28", "name": "Anatole France", "nom_festival": "Festival yaouank" }, "geometry": { "type": "Point", "coordinates": [ -1.686405, 48.117985 ] } },
{ "type": "Feature", "properties": { "fid": 122, "addr:street": "Avenue du 41ème Régiment d'Infanterie", "amenity": "bicycle_rental", "capacity": "28", "name": "Anatole France", "nom_festival": "Jardins d'hiver" }, "geometry": { "type": "Point", "coordinates": [ -1.686405, 48.117985 ] } },
{ "type": "Feature", "properties": { "fid": 122, "addr:street": "Avenue du 41ème Régiment d'Infanterie", "amenity": "bicycle_rental", "capacity": "28", "name": "Anatole France", "nom_festival": "Le grand soufflet" }, "geometry": { "type": "Point", "coordinates": [ -1.686405, 48.117985 ] } },
{ "type": "Feature", "properties": { "fid": 122, "addr:street": "Avenue du 41ème Régiment d'Infanterie", "amenity": "bicycle_rental", "capacity": "28", "name": "Anatole France", "nom_festival": "Festival rue des livres" }, "geometry": { "type": "Point", "coordinates": [ -1.686405, 48.117985 ] } },
{ "type": "Feature", "properties": { "fid": 122, "addr:street": "Avenue du 41ème Régiment d'Infanterie", "amenity": "bicycle_rental", "capacity": "28", "name": "Anatole France", "nom_festival": "Mythos" }, "geometry": { "type": "Point", "coordinates": [ -1.686405, 48.117985 ] } },
{ "type": "Feature", "properties": { "fid": 122, "addr:street": "Avenue du 41ème Régiment d'Infanterie", "amenity": "bicycle_rental", "capacity": "28", "name": "Anatole France", "nom_festival": "Festival tnb" }, "geometry": { "type": "Point", "coordinates": [ -1.686405, 48.117985 ] } },
{ "type": "Feature", "properties": { "fid": 122, "addr:street": "Avenue du 41ème Régiment d'Infanterie", "amenity": "bicycle_rental", "capacity": "28", "name": "Anatole France", "nom_festival": "Les tombees de la nuit" }, "geometry": { "type": "Point", "coordinates": [ -1.686405, 48.117985 ] } },
{ "type": "Feature", "properties": { "fid": 122, "addr:street": "Avenue du 41ème Régiment d'Infanterie", "amenity": "bicycle_rental", "capacity": "28", "name": "Anatole France", "nom_festival": "I'm from rennes (site du thabord)" }, "geometry": { "type": "Point", "coordinates": [ -1.686405, 48.117985 ] } },
{ "type": "Feature", "properties": { "fid": 122, "addr:street": "Avenue du 41ème Régiment d'Infanterie", "amenity": "bicycle_rental", "capacity": "28", "name": "Anatole France", "nom_festival": "Made festival" }, "geometry": { "type": "Point", "coordinates": [ -1.686405, 48.117985 ] } },
{ "type": "Feature", "properties": { "fid": 160, "addr:street": null, "amenity": "bicycle_rental", "capacity": null, "name": "Boutique VéLO an Oriant", "nom_festival": "Festival interceltique de lorient" }, "geometry": { "type": "Point", "coordinates": [ -3.3658969, 47.7540388 ] } },
{ "type": "Feature", "properties": { "fid": 160, "addr:street": null, "amenity": "bicycle_rental", "capacity": null, "name": "Boutique VéLO an Oriant", "nom_festival": "Festival eldorado" }, "geometry": { "type": "Point", "coordinates": [ -3.3658969, 47.7540388 ] } },
{ "type": "Feature", "properties": { "fid": 164, "addr:street": null, "amenity": "bicycle_rental", "capacity": "6", "name": "Quai des Indes", "nom_festival": "Festival interceltique de lorient" }, "geometry": { "type": "Point", "coordinates": [ -3.3572407, 47.7446333 ] } },
{ "type": "Feature", "properties": { "fid": 164, "addr:street": null, "amenity": "bicycle_rental", "capacity": "6", "name": "Quai des Indes", "nom_festival": "Les indisciplinees" }, "geometry": { "type": "Point", "coordinates": [ -3.3572407, 47.7446333 ] } },
{ "type": "Feature", "properties": { "fid": 164, "addr:street": null, "amenity": "bicycle_rental", "capacity": "6", "name": "Quai des Indes", "nom_festival": "Festival eldorado" }, "geometry": { "type": "Point", "coordinates": [ -3.3572407, 47.7446333 ] } },
{ "type": "Feature", "properties": { "fid": 170, "addr:street": "Rue de REDON", "amenity": "bicycle_rental", "capacity": "25", "name": "Mabilais", "nom_festival": "Festival agrock" }, "geometry": { "type": "Point", "coordinates": [ -1.6928817, 48.1051245 ] } },
{ "type": "Feature", "properties": { "fid": 170, "addr:street": "Rue de REDON", "amenity": "bicycle_rental", "capacity": "25", "name": "Mabilais", "nom_festival": "Les rencontres trans musicales de rennes" }, "geometry": { "type": "Point", "coordinates": [ -1.6928817, 48.1051245 ] } },
{ "type": "Feature", "properties": { "fid": 170, "addr:street": "Rue de REDON", "amenity": "bicycle_rental", "capacity": "25", "name": "Mabilais", "nom_festival": "Transat en ville" }, "geometry": { "type": "Point", "coordinates": [ -1.6928817, 48.1051245 ] } },
{ "type": "Feature", "properties": { "fid": 170, "addr:street": "Rue de REDON", "amenity": "bicycle_rental", "capacity": "25", "name": "Mabilais", "nom_festival": "Jardins d'hiver" }, "geometry": { "type": "Point", "coordinates": [ -1.6928817, 48.1051245 ] } },
{ "type": "Feature", "properties": { "fid": 170, "addr:street": "Rue de REDON", "amenity": "bicycle_rental", "capacity": "25", "name": "Mabilais", "nom_festival": "Le grand soufflet" }, "geometry": { "type": "Point", "coordinates": [ -1.6928817, 48.1051245 ] } },
{ "type": "Feature", "properties": { "fid": 170, "addr:street": "Rue de REDON", "amenity": "bicycle_rental", "capacity": "25", "name": "Mabilais", "nom_festival": "Mythos" }, "geometry": { "type": "Point", "coordinates": [ -1.6928817, 48.1051245 ] } },
{ "type": "Feature", "properties": { "fid": 170, "addr:street": "Rue de REDON", "amenity": "bicycle_rental", "capacity": "25", "name": "Mabilais", "nom_festival": "Festival tnb" }, "geometry": { "type": "Point", "coordinates": [ -1.6928817, 48.1051245 ] } },
{ "type": "Feature", "properties": { "fid": 170, "addr:street": "Rue de REDON", "amenity": "bicycle_rental", "capacity": "25", "name": "Mabilais", "nom_festival": "Les tombees de la nuit" }, "geometry": { "type": "Point", "coordinates": [ -1.6928817, 48.1051245 ] } },
{ "type": "Feature", "properties": { "fid": 170, "addr:street": "Rue de REDON", "amenity": "bicycle_rental", "capacity": "25", "name": "Mabilais", "nom_festival": "I'm from rennes (site du thabord)" }, "geometry": { "type": "Point", "coordinates": [ -1.6928817, 48.1051245 ] } },
{ "type": "Feature", "properties": { "fid": 170, "addr:street": "Rue de REDON", "amenity": "bicycle_rental", "capacity": "25", "name": "Mabilais", "nom_festival": "Made festival" }, "geometry": { "type": "Point", "coordinates": [ -1.6928817, 48.1051245 ] } },
{ "type": "Feature", "properties": { "fid": 171, "addr:street": "Avenue Sergent Maginot", "amenity": "bicycle_rental", "capacity": "20", "name": "Robidou", "nom_festival": "Les rencontres trans musicales de rennes" }, "geometry": { "type": "Point", "coordinates": [ -1.6593876, 48.1099172 ] } },
{ "type": "Feature", "properties": { "fid": 171, "addr:street": "Avenue Sergent Maginot", "amenity": "bicycle_rental", "capacity": "20", "name": "Robidou", "nom_festival": "Transat en ville" }, "geometry": { "type": "Point", "coordinates": [ -1.6593876, 48.1099172 ] } },
{ "type": "Feature", "properties": { "fid": 171, "addr:street": "Avenue Sergent Maginot", "amenity": "bicycle_rental", "capacity": "20", "name": "Robidou", "nom_festival": "Jardins d'hiver" }, "geometry": { "type": "Point", "coordinates": [ -1.6593876, 48.1099172 ] } },
{ "type": "Feature", "properties": { "fid": 171, "addr:street": "Avenue Sergent Maginot", "amenity": "bicycle_rental", "capacity": "20", "name": "Robidou", "nom_festival": "Le grand soufflet" }, "geometry": { "type": "Point", "coordinates": [ -1.6593876, 48.1099172 ] } },
{ "type": "Feature", "properties": { "fid": 171, "addr:street": "Avenue Sergent Maginot", "amenity": "bicycle_rental", "capacity": "20", "name": "Robidou", "nom_festival": "Festival rue des livres" }, "geometry": { "type": "Point", "coordinates": [ -1.6593876, 48.1099172 ] } },
{ "type": "Feature", "properties": { "fid": 171, "addr:street": "Avenue Sergent Maginot", "amenity": "bicycle_rental", "capacity": "20", "name": "Robidou", "nom_festival": "Mythos" }, "geometry": { "type": "Point", "coordinates": [ -1.6593876, 48.1099172 ] } },
{ "type": "Feature", "properties": { "fid": 171, "addr:street": "Avenue Sergent Maginot", "amenity": "bicycle_rental", "capacity": "20", "name": "Robidou", "nom_festival": "Festival tnb" }, "geometry": { "type": "Point", "coordinates": [ -1.6593876, 48.1099172 ] } },
{ "type": "Feature", "properties": { "fid": 171, "addr:street": "Avenue Sergent Maginot", "amenity": "bicycle_rental", "capacity": "20", "name": "Robidou", "nom_festival": "Les tombees de la nuit" }, "geometry": { "type": "Point", "coordinates": [ -1.6593876, 48.1099172 ] } },
{ "type": "Feature", "properties": { "fid": 171, "addr:street": "Avenue Sergent Maginot", "amenity": "bicycle_rental", "capacity": "20", "name": "Robidou", "nom_festival": "I'm from rennes (site du thabord)" }, "geometry": { "type": "Point", "coordinates": [ -1.6593876, 48.1099172 ] } },
{ "type": "Feature", "properties": { "fid": 171, "addr:street": "Avenue Sergent Maginot", "amenity": "bicycle_rental", "capacity": "20", "name": "Robidou", "nom_festival": "Made festival" }, "geometry": { "type": "Point", "coordinates": [ -1.6593876, 48.1099172 ] } },
{ "type": "Feature", "properties": { "fid": 172, "addr:street": "Rue de Cornouaille", "amenity": "bicycle_rental", "capacity": null, "name": "A bicyclette", "nom_festival": "Chambre avec vue" }, "geometry": { "type": "Point", "coordinates": [ -4.0105058, 47.8948799 ] } },
{ "type": "Feature", "properties": { "fid": 173, "addr:street": null, "amenity": "bicycle_rental", "capacity": "5", "name": null, "nom_festival": "Festival interceltique de lorient" }, "geometry": { "type": "Point", "coordinates": [ -3.3661457, 47.7546887 ] } },
{ "type": "Feature", "properties": { "fid": 173, "addr:street": null, "amenity": "bicycle_rental", "capacity": "5", "name": null, "nom_festival": "Festival eldorado" }, "geometry": { "type": "Point", "coordinates": [ -3.3661457, 47.7546887 ] } },
{ "type": "Feature", "properties": { "fid": 175, "addr:street": "Rue Claude Bernard", "amenity": "bicycle_rental", "capacity": "20", "name": "La Courrouze", "nom_festival": "Festival agrock" }, "geometry": { "type": "Point", "coordinates": [ -1.6945598, 48.0989918 ] } },
{ "type": "Feature", "properties": { "fid": 175, "addr:street": "Rue Claude Bernard", "amenity": "bicycle_rental", "capacity": "20", "name": "La Courrouze", "nom_festival": "Jazz à l'ouest" }, "geometry": { "type": "Point", "coordinates": [ -1.6945598, 48.0989918 ] } },
{ "type": "Feature", "properties": { "fid": 175, "addr:street": "Rue Claude Bernard", "amenity": "bicycle_rental", "capacity": "20", "name": "La Courrouze", "nom_festival": "Les rencontres trans musicales de rennes" }, "geometry": { "type": "Point", "coordinates": [ -1.6945598, 48.0989918 ] } },
{ "type": "Feature", "properties": { "fid": 175, "addr:street": "Rue Claude Bernard", "amenity": "bicycle_rental", "capacity": "20", "name": "La Courrouze", "nom_festival": "Transat en ville" }, "geometry": { "type": "Point", "coordinates": [ -1.6945598, 48.0989918 ] } },
{ "type": "Feature", "properties": { "fid": 175, "addr:street": "Rue Claude Bernard", "amenity": "bicycle_rental", "capacity": "20", "name": "La Courrouze", "nom_festival": "Jardins d'hiver" }, "geometry": { "type": "Point", "coordinates": [ -1.6945598, 48.0989918 ] } },
{ "type": "Feature", "properties": { "fid": 175, "addr:street": "Rue Claude Bernard", "amenity": "bicycle_rental", "capacity": "20", "name": "La Courrouze", "nom_festival": "Festival tnb" }, "geometry": { "type": "Point", "coordinates": [ -1.6945598, 48.0989918 ] } },
{ "type": "Feature", "properties": { "fid": 175, "addr:street": "Rue Claude Bernard", "amenity": "bicycle_rental", "capacity": "20", "name": "La Courrouze", "nom_festival": "Les tombees de la nuit" }, "geometry": { "type": "Point", "coordinates": [ -1.6945598, 48.0989918 ] } },
{ "type": "Feature", "properties": { "fid": 175, "addr:street": "Rue Claude Bernard", "amenity": "bicycle_rental", "capacity": "20", "name": "La Courrouze", "nom_festival": "Made festival" }, "geometry": { "type": "Point", "coordinates": [ -1.6945598, 48.0989918 ] } },
{ "type": "Feature", "properties": { "fid": 190, "addr:street": "Rue de la Taurellerie", "amenity": "bicycle_rental", "capacity": "24", "name": "Armorique", "nom_festival": "Big love" }, "geometry": { "type": "Point", "coordinates": [ -1.6761837, 48.1299297 ] } },
{ "type": "Feature", "properties": { "fid": 190, "addr:street": "Rue de la Taurellerie", "amenity": "bicycle_rental", "capacity": "24", "name": "Armorique", "nom_festival": "Sevenadur" }, "geometry": { "type": "Point", "coordinates": [ -1.6761837, 48.1299297 ] } },
{ "type": "Feature", "properties": { "fid": 190, "addr:street": "Rue de la Taurellerie", "amenity": "bicycle_rental", "capacity": "24", "name": "Armorique", "nom_festival": "Festival yaouank" }, "geometry": { "type": "Point", "coordinates": [ -1.6761837, 48.1299297 ] } },
{ "type": "Feature", "properties": { "fid": 190, "addr:street": "Rue de la Taurellerie", "amenity": "bicycle_rental", "capacity": "24", "name": "Armorique", "nom_festival": "Le grand soufflet" }, "geometry": { "type": "Point", "coordinates": [ -1.6761837, 48.1299297 ] } },
{ "type": "Feature", "properties": { "fid": 190, "addr:street": "Rue de la Taurellerie", "amenity": "bicycle_rental", "capacity": "24", "name": "Armorique", "nom_festival": "Marmaille" }, "geometry": { "type": "Point", "coordinates": [ -1.6761837, 48.1299297 ] } },
{ "type": "Feature", "properties": { "fid": 190, "addr:street": "Rue de la Taurellerie", "amenity": "bicycle_rental", "capacity": "24", "name": "Armorique", "nom_festival": "Festival rue des livres" }, "geometry": { "type": "Point", "coordinates": [ -1.6761837, 48.1299297 ] } },
{ "type": "Feature", "properties": { "fid": 190, "addr:street": "Rue de la Taurellerie", "amenity": "bicycle_rental", "capacity": "24", "name": "Armorique", "nom_festival": "Mythos" }, "geometry": { "type": "Point", "coordinates": [ -1.6761837, 48.1299297 ] } },
{ "type": "Feature", "properties": { "fid": 190, "addr:street": "Rue de la Taurellerie", "amenity": "bicycle_rental", "capacity": "24", "name": "Armorique", "nom_festival": "I'm from rennes (site du thabord)" }, "geometry": { "type": "Point", "coordinates": [ -1.6761837, 48.1299297 ] } },
{ "type": "Feature", "properties": { "fid": 194, "addr:street": null, "amenity": "bicycle_rental", "capacity": null, "name": "Cyclelec", "nom_festival": "Belle ile on air" }, "geometry": { "type": "Point", "coordinates": [ -3.1536215, 47.3468346 ] } },
{ "type": "Feature", "properties": { "fid": 196, "addr:street": null, "amenity": "bicycle_rental", "capacity": null, "name": "n°1 Station Gare", "nom_festival": "Festival interceltique de lorient" }, "geometry": { "type": "Point", "coordinates": [ -3.3664083, 47.7557134 ] } },
{ "type": "Feature", "properties": { "fid": 196, "addr:street": null, "amenity": "bicycle_rental", "capacity": null, "name": "n°1 Station Gare", "nom_festival": "Festival eldorado" }, "geometry": { "type": "Point", "coordinates": [ -3.3664083, 47.7557134 ] } },
{ "type": "Feature", "properties": { "fid": 197, "addr:street": null, "amenity": "bicycle_rental", "capacity": "5", "name": "Quai des Indes", "nom_festival": "Festival interceltique de lorient" }, "geometry": { "type": "Point", "coordinates": [ -3.3572039, 47.7446185 ] } },
{ "type": "Feature", "properties": { "fid": 197, "addr:street": null, "amenity": "bicycle_rental", "capacity": "5", "name": "Quai des Indes", "nom_festival": "Les indisciplinees" }, "geometry": { "type": "Point", "coordinates": [ -3.3572039, 47.7446185 ] } },
{ "type": "Feature", "properties": { "fid": 197, "addr:street": null, "amenity": "bicycle_rental", "capacity": "5", "name": "Quai des Indes", "nom_festival": "Festival eldorado" }, "geometry": { "type": "Point", "coordinates": [ -3.3572039, 47.7446185 ] } },
{ "type": "Feature", "properties": { "fid": 209, "addr:street": null, "amenity": "bicycle_rental", "capacity": null, "name": "Vélek'tro", "nom_festival": "Festival de la bd de perros-guirec" }, "geometry": { "type": "Point", "coordinates": [ -3.4429748, 48.8052996 ] } },
{ "type": "Feature", "properties": { "fid": 223, "addr:street": null, "amenity": "bicycle_rental", "capacity": null, "name": "Velektro", "nom_festival": "Gare au gorille" }, "geometry": { "type": "Point", "coordinates": [ -3.4544533, 48.7255915 ] } },
{ "type": "Feature", "properties": { "fid": 226, "addr:street": null, "amenity": "bicycle_rental", "capacity": null, "name": "Velektro", "nom_festival": "Gare au gorille" }, "geometry": { "type": "Point", "coordinates": [ -3.4621599, 48.7318264 ] } },
{ "type": "Feature", "properties": { "fid": 236, "addr:street": null, "amenity": "bicycle_rental", "capacity": null, "name": "Cycles Reversade", "nom_festival": "Belle ile on air" }, "geometry": { "type": "Point", "coordinates": [ -3.1555653, 47.3469101 ] } },
{ "type": "Feature", "properties": { "fid": 268, "addr:street": null, "amenity": "bicycle_rental", "capacity": "12", "name": null, "nom_festival": "L'eveil du boucan" }, "geometry": { "type": "Point", "coordinates": [ -2.7442742, 47.644387 ] } },
{ "type": "Feature", "properties": { "fid": 268, "addr:street": null, "amenity": "bicycle_rental", "capacity": "12", "name": null, "nom_festival": "Livr'a vannes" }, "geometry": { "type": "Point", "coordinates": [ -2.7442742, 47.644387 ] } },
{ "type": "Feature", "properties": { "fid": 269, "addr:street": "Boulevard de la Résistance", "amenity": "bicycle_rental", "capacity": "12", "name": null, "nom_festival": "Livr'a vannes" }, "geometry": { "type": "Point", "coordinates": [ -2.7780151, 47.6443802 ] } },
{ "type": "Feature", "properties": { "fid": 270, "addr:street": null, "amenity": "bicycle_rental", "capacity": "16", "name": null, "nom_festival": "L'eveil du boucan" }, "geometry": { "type": "Point", "coordinates": [ -2.7592224, 47.6532753 ] } },
{ "type": "Feature", "properties": { "fid": 270, "addr:street": null, "amenity": "bicycle_rental", "capacity": "16", "name": null, "nom_festival": "Livr'a vannes" }, "geometry": { "type": "Point", "coordinates": [ -2.7592224, 47.6532753 ] } },
{ "type": "Feature", "properties": { "fid": 270, "addr:street": null, "amenity": "bicycle_rental", "capacity": "16", "name": null, "nom_festival": "Festival les emancipéés" }, "geometry": { "type": "Point", "coordinates": [ -2.7592224, 47.6532753 ] } },
{ "type": "Feature", "properties": { "fid": 271, "addr:street": null, "amenity": "bicycle_rental", "capacity": "12", "name": null, "nom_festival": "L'eveil du boucan" }, "geometry": { "type": "Point", "coordinates": [ -2.7601454, 47.6585204 ] } },
{ "type": "Feature", "properties": { "fid": 271, "addr:street": null, "amenity": "bicycle_rental", "capacity": "12", "name": null, "nom_festival": "Livr'a vannes" }, "geometry": { "type": "Point", "coordinates": [ -2.7601454, 47.6585204 ] } },
{ "type": "Feature", "properties": { "fid": 271, "addr:street": null, "amenity": "bicycle_rental", "capacity": "12", "name": null, "nom_festival": "Festival les emancipéés" }, "geometry": { "type": "Point", "coordinates": [ -2.7601454, 47.6585204 ] } },
{ "type": "Feature", "properties": { "fid": 272, "addr:street": null, "amenity": "bicycle_rental", "capacity": "16", "name": null, "nom_festival": "L'eveil du boucan" }, "geometry": { "type": "Point", "coordinates": [ -2.7523198, 47.6647891 ] } },
{ "type": "Feature", "properties": { "fid": 272, "addr:street": null, "amenity": "bicycle_rental", "capacity": "16", "name": null, "nom_festival": "Livr'a vannes" }, "geometry": { "type": "Point", "coordinates": [ -2.7523198, 47.6647891 ] } },
{ "type": "Feature", "properties": { "fid": 272, "addr:street": null, "amenity": "bicycle_rental", "capacity": "16", "name": null, "nom_festival": "Festival les emancipéés" }, "geometry": { "type": "Point", "coordinates": [ -2.7523198, 47.6647891 ] } },
{ "type": "Feature", "properties": { "fid": 277, "addr:street": "rue Antoine Joly", "amenity": "bicycle_rental", "capacity": "28", "name": "Pontchaillou", "nom_festival": "Festival agrock" }, "geometry": { "type": "Point", "coordinates": [ -1.692737, 48.121481 ] } },
{ "type": "Feature", "properties": { "fid": 277, "addr:street": "rue Antoine Joly", "amenity": "bicycle_rental", "capacity": "28", "name": "Pontchaillou", "nom_festival": "Big love" }, "geometry": { "type": "Point", "coordinates": [ -1.692737, 48.121481 ] } },
{ "type": "Feature", "properties": { "fid": 277, "addr:street": "rue Antoine Joly", "amenity": "bicycle_rental", "capacity": "28", "name": "Pontchaillou", "nom_festival": "Sevenadur" }, "geometry": { "type": "Point", "coordinates": [ -1.692737, 48.121481 ] } },
{ "type": "Feature", "properties": { "fid": 277, "addr:street": "rue Antoine Joly", "amenity": "bicycle_rental", "capacity": "28", "name": "Pontchaillou", "nom_festival": "Les rencontres trans musicales de rennes" }, "geometry": { "type": "Point", "coordinates": [ -1.692737, 48.121481 ] } },
{ "type": "Feature", "properties": { "fid": 277, "addr:street": "rue Antoine Joly", "amenity": "bicycle_rental", "capacity": "28", "name": "Pontchaillou", "nom_festival": "Transat en ville" }, "geometry": { "type": "Point", "coordinates": [ -1.692737, 48.121481 ] } },
{ "type": "Feature", "properties": { "fid": 277, "addr:street": "rue Antoine Joly", "amenity": "bicycle_rental", "capacity": "28", "name": "Pontchaillou", "nom_festival": "Festival yaouank" }, "geometry": { "type": "Point", "coordinates": [ -1.692737, 48.121481 ] } },
{ "type": "Feature", "properties": { "fid": 277, "addr:street": "rue Antoine Joly", "amenity": "bicycle_rental", "capacity": "28", "name": "Pontchaillou", "nom_festival": "Le grand soufflet" }, "geometry": { "type": "Point", "coordinates": [ -1.692737, 48.121481 ] } },
{ "type": "Feature", "properties": { "fid": 277, "addr:street": "rue Antoine Joly", "amenity": "bicycle_rental", "capacity": "28", "name": "Pontchaillou", "nom_festival": "Mythos" }, "geometry": { "type": "Point", "coordinates": [ -1.692737, 48.121481 ] } },
{ "type": "Feature", "properties": { "fid": 277, "addr:street": "rue Antoine Joly", "amenity": "bicycle_rental", "capacity": "28", "name": "Pontchaillou", "nom_festival": "Les tombees de la nuit" }, "geometry": { "type": "Point", "coordinates": [ -1.692737, 48.121481 ] } },
{ "type": "Feature", "properties": { "fid": 277, "addr:street": "rue Antoine Joly", "amenity": "bicycle_rental", "capacity": "28", "name": "Pontchaillou", "nom_festival": "I'm from rennes (site du thabord)" }, "geometry": { "type": "Point", "coordinates": [ -1.692737, 48.121481 ] } },
{ "type": "Feature", "properties": { "fid": 277, "addr:street": "rue Antoine Joly", "amenity": "bicycle_rental", "capacity": "28", "name": "Pontchaillou", "nom_festival": "Made festival" }, "geometry": { "type": "Point", "coordinates": [ -1.692737, 48.121481 ] } },
{ "type": "Feature", "properties": { "fid": 278, "addr:street": "Rue Alphonse Guérin", "amenity": "bicycle_rental", "capacity": "20", "name": "Pont de Strasbourg", "nom_festival": "Les rencontres trans musicales de rennes" }, "geometry": { "type": "Point", "coordinates": [ -1.6559469, 48.1098581 ] } },
{ "type": "Feature", "properties": { "fid": 278, "addr:street": "Rue Alphonse Guérin", "amenity": "bicycle_rental", "capacity": "20", "name": "Pont de Strasbourg", "nom_festival": "Transat en ville" }, "geometry": { "type": "Point", "coordinates": [ -1.6559469, 48.1098581 ] } },
{ "type": "Feature", "properties": { "fid": 278, "addr:street": "Rue Alphonse Guérin", "amenity": "bicycle_rental", "capacity": "20", "name": "Pont de Strasbourg", "nom_festival": "Jardins d'hiver" }, "geometry": { "type": "Point", "coordinates": [ -1.6559469, 48.1098581 ] } },
{ "type": "Feature", "properties": { "fid": 278, "addr:street": "Rue Alphonse Guérin", "amenity": "bicycle_rental", "capacity": "20", "name": "Pont de Strasbourg", "nom_festival": "Le grand soufflet" }, "geometry": { "type": "Point", "coordinates": [ -1.6559469, 48.1098581 ] } },
{ "type": "Feature", "properties": { "fid": 278, "addr:street": "Rue Alphonse Guérin", "amenity": "bicycle_rental", "capacity": "20", "name": "Pont de Strasbourg", "nom_festival": "Marmaille" }, "geometry": { "type": "Point", "coordinates": [ -1.6559469, 48.1098581 ] } },
{ "type": "Feature", "properties": { "fid": 278, "addr:street": "Rue Alphonse Guérin", "amenity": "bicycle_rental", "capacity": "20", "name": "Pont de Strasbourg", "nom_festival": "Dooinit festival" }, "geometry": { "type": "Point", "coordinates": [ -1.6559469, 48.1098581 ] } },
{ "type": "Feature", "properties": { "fid": 278, "addr:street": "Rue Alphonse Guérin", "amenity": "bicycle_rental", "capacity": "20", "name": "Pont de Strasbourg", "nom_festival": "Ballade avec brassens" }, "geometry": { "type": "Point", "coordinates": [ -1.6559469, 48.1098581 ] } },
{ "type": "Feature", "properties": { "fid": 278, "addr:street": "Rue Alphonse Guérin", "amenity": "bicycle_rental", "capacity": "20", "name": "Pont de Strasbourg", "nom_festival": "Festival rue des livres" }, "geometry": { "type": "Point", "coordinates": [ -1.6559469, 48.1098581 ] } },
{ "type": "Feature", "properties": { "fid": 278, "addr:street": "Rue Alphonse Guérin", "amenity": "bicycle_rental", "capacity": "20", "name": "Pont de Strasbourg", "nom_festival": "Mythos" }, "geometry": { "type": "Point", "coordinates": [ -1.6559469, 48.1098581 ] } },
{ "type": "Feature", "properties": { "fid": 278, "addr:street": "Rue Alphonse Guérin", "amenity": "bicycle_rental", "capacity": "20", "name": "Pont de Strasbourg", "nom_festival": "Festival tnb" }, "geometry": { "type": "Point", "coordinates": [ -1.6559469, 48.1098581 ] } },
{ "type": "Feature", "properties": { "fid": 278, "addr:street": "Rue Alphonse Guérin", "amenity": "bicycle_rental", "capacity": "20", "name": "Pont de Strasbourg", "nom_festival": "Les tombees de la nuit" }, "geometry": { "type": "Point", "coordinates": [ -1.6559469, 48.1098581 ] } },
{ "type": "Feature", "properties": { "fid": 278, "addr:street": "Rue Alphonse Guérin", "amenity": "bicycle_rental", "capacity": "20", "name": "Pont de Strasbourg", "nom_festival": "I'm from rennes (site du thabord)" }, "geometry": { "type": "Point", "coordinates": [ -1.6559469, 48.1098581 ] } },
{ "type": "Feature", "properties": { "fid": 278, "addr:street": "Rue Alphonse Guérin", "amenity": "bicycle_rental", "capacity": "20", "name": "Pont de Strasbourg", "nom_festival": "Made festival" }, "geometry": { "type": "Point", "coordinates": [ -1.6559469, 48.1098581 ] } },
{ "type": "Feature", "properties": { "fid": 279, "addr:street": "Avenue du Professeur Charles Foulon", "amenity": "bicycle_rental", "capacity": "30", "name": "Beaulieu - Université", "nom_festival": "Marmaille" }, "geometry": { "type": "Point", "coordinates": [ -1.6397118, 48.1219137 ] } },
{ "type": "Feature", "properties": { "fid": 279, "addr:street": "Avenue du Professeur Charles Foulon", "amenity": "bicycle_rental", "capacity": "30", "name": "Beaulieu - Université", "nom_festival": "Rock'n solex" }, "geometry": { "type": "Point", "coordinates": [ -1.6397118, 48.1219137 ] } },
{ "type": "Feature", "properties": { "fid": 279, "addr:street": "Avenue du Professeur Charles Foulon", "amenity": "bicycle_rental", "capacity": "30", "name": "Beaulieu - Université", "nom_festival": "Festival rue des livres" }, "geometry": { "type": "Point", "coordinates": [ -1.6397118, 48.1219137 ] } },
{ "type": "Feature", "properties": { "fid": 326, "addr:street": null, "amenity": "bicycle_rental", "capacity": "15", "name": null, "nom_festival": "Carnavalorock" }, "geometry": { "type": "Point", "coordinates": [ -2.7622504, 48.5120143 ] } },
{ "type": "Feature", "properties": { "fid": 326, "addr:street": null, "amenity": "bicycle_rental", "capacity": "15", "name": null, "nom_festival": "Art rock (grande scène)" }, "geometry": { "type": "Point", "coordinates": [ -2.7622504, 48.5120143 ] } },
{ "type": "Feature", "properties": { "fid": 329, "addr:street": null, "amenity": "bicycle_rental", "capacity": "15", "name": null, "nom_festival": "Carnavalorock" }, "geometry": { "type": "Point", "coordinates": [ -2.7503387, 48.5231106 ] } },
{ "type": "Feature", "properties": { "fid": 329, "addr:street": null, "amenity": "bicycle_rental", "capacity": "15", "name": null, "nom_festival": "Art rock (grande scène)" }, "geometry": { "type": "Point", "coordinates": [ -2.7503387, 48.5231106 ] } },
{ "type": "Feature", "properties": { "fid": 330, "addr:street": null, "amenity": "bicycle_rental", "capacity": "30", "name": "Joliot-Curie - Chateaubriand", "nom_festival": "Le grand soufflet" }, "geometry": { "type": "Point", "coordinates": [ -1.6512579, 48.1244455 ] } },
{ "type": "Feature", "properties": { "fid": 330, "addr:street": null, "amenity": "bicycle_rental", "capacity": "30", "name": "Joliot-Curie - Chateaubriand", "nom_festival": "Marmaille" }, "geometry": { "type": "Point", "coordinates": [ -1.6512579, 48.1244455 ] } },
{ "type": "Feature", "properties": { "fid": 330, "addr:street": null, "amenity": "bicycle_rental", "capacity": "30", "name": "Joliot-Curie - Chateaubriand", "nom_festival": "Rock'n solex" }, "geometry": { "type": "Point", "coordinates": [ -1.6512579, 48.1244455 ] } },
{ "type": "Feature", "properties": { "fid": 330, "addr:street": null, "amenity": "bicycle_rental", "capacity": "30", "name": "Joliot-Curie - Chateaubriand", "nom_festival": "Festival rue des livres" }, "geometry": { "type": "Point", "coordinates": [ -1.6512579, 48.1244455 ] } },
{ "type": "Feature", "properties": { "fid": 330, "addr:street": null, "amenity": "bicycle_rental", "capacity": "30", "name": "Joliot-Curie - Chateaubriand", "nom_festival": "Mythos" }, "geometry": { "type": "Point", "coordinates": [ -1.6512579, 48.1244455 ] } },
{ "type": "Feature", "properties": { "fid": 330, "addr:street": null, "amenity": "bicycle_rental", "capacity": "30", "name": "Joliot-Curie - Chateaubriand", "nom_festival": "I'm from rennes (site du thabord)" }, "geometry": { "type": "Point", "coordinates": [ -1.6512579, 48.1244455 ] } },
{ "type": "Feature", "properties": { "fid": 332, "addr:street": "Rue de Châtillon", "amenity": "bicycle_rental", "capacity": "24", "name": "Gare Sud Féval", "nom_festival": "Les rencontres trans musicales de rennes" }, "geometry": { "type": "Point", "coordinates": [ -1.6737236, 48.102112 ] } },
{ "type": "Feature", "properties": { "fid": 332, "addr:street": "Rue de Châtillon", "amenity": "bicycle_rental", "capacity": "24", "name": "Gare Sud Féval", "nom_festival": "Transat en ville" }, "geometry": { "type": "Point", "coordinates": [ -1.6737236, 48.102112 ] } },
{ "type": "Feature", "properties": { "fid": 332, "addr:street": "Rue de Châtillon", "amenity": "bicycle_rental", "capacity": "24", "name": "Gare Sud Féval", "nom_festival": "Jardins d'hiver" }, "geometry": { "type": "Point", "coordinates": [ -1.6737236, 48.102112 ] } },
{ "type": "Feature", "properties": { "fid": 332, "addr:street": "Rue de Châtillon", "amenity": "bicycle_rental", "capacity": "24", "name": "Gare Sud Féval", "nom_festival": "Le grand soufflet" }, "geometry": { "type": "Point", "coordinates": [ -1.6737236, 48.102112 ] } },
{ "type": "Feature", "properties": { "fid": 332, "addr:street": "Rue de Châtillon", "amenity": "bicycle_rental", "capacity": "24", "name": "Gare Sud Féval", "nom_festival": "Mythos" }, "geometry": { "type": "Point", "coordinates": [ -1.6737236, 48.102112 ] } },
{ "type": "Feature", "properties": { "fid": 332, "addr:street": "Rue de Châtillon", "amenity": "bicycle_rental", "capacity": "24", "name": "Gare Sud Féval", "nom_festival": "Festival tnb" }, "geometry": { "type": "Point", "coordinates": [ -1.6737236, 48.102112 ] } },
{ "type": "Feature", "properties": { "fid": 332, "addr:street": "Rue de Châtillon", "amenity": "bicycle_rental", "capacity": "24", "name": "Gare Sud Féval", "nom_festival": "Les tombees de la nuit" }, "geometry": { "type": "Point", "coordinates": [ -1.6737236, 48.102112 ] } },
{ "type": "Feature", "properties": { "fid": 332, "addr:street": "Rue de Châtillon", "amenity": "bicycle_rental", "capacity": "24", "name": "Gare Sud Féval", "nom_festival": "I'm from rennes (site du thabord)" }, "geometry": { "type": "Point", "coordinates": [ -1.6737236, 48.102112 ] } },
{ "type": "Feature", "properties": { "fid": 332, "addr:street": "Rue de Châtillon", "amenity": "bicycle_rental", "capacity": "24", "name": "Gare Sud Féval", "nom_festival": "Made festival" }, "geometry": { "type": "Point", "coordinates": [ -1.6737236, 48.102112 ] } },
{ "type": "Feature", "properties": { "fid": 334, "addr:street": null, "amenity": "bicycle_rental", "capacity": "18", "name": "Gros-Chêne", "nom_festival": "Sevenadur" }, "geometry": { "type": "Point", "coordinates": [ -1.6642025, 48.1253717 ] } },
{ "type": "Feature", "properties": { "fid": 334, "addr:street": null, "amenity": "bicycle_rental", "capacity": "18", "name": "Gros-Chêne", "nom_festival": "Transat en ville" }, "geometry": { "type": "Point", "coordinates": [ -1.6642025, 48.1253717 ] } },
{ "type": "Feature", "properties": { "fid": 334, "addr:street": null, "amenity": "bicycle_rental", "capacity": "18", "name": "Gros-Chêne", "nom_festival": "Festival yaouank" }, "geometry": { "type": "Point", "coordinates": [ -1.6642025, 48.1253717 ] } },
{ "type": "Feature", "properties": { "fid": 334, "addr:street": null, "amenity": "bicycle_rental", "capacity": "18", "name": "Gros-Chêne", "nom_festival": "Le grand soufflet" }, "geometry": { "type": "Point", "coordinates": [ -1.6642025, 48.1253717 ] } },
{ "type": "Feature", "properties": { "fid": 334, "addr:street": null, "amenity": "bicycle_rental", "capacity": "18", "name": "Gros-Chêne", "nom_festival": "Marmaille" }, "geometry": { "type": "Point", "coordinates": [ -1.6642025, 48.1253717 ] } },
{ "type": "Feature", "properties": { "fid": 334, "addr:street": null, "amenity": "bicycle_rental", "capacity": "18", "name": "Gros-Chêne", "nom_festival": "Festival rue des livres" }, "geometry": { "type": "Point", "coordinates": [ -1.6642025, 48.1253717 ] } },
{ "type": "Feature", "properties": { "fid": 334, "addr:street": null, "amenity": "bicycle_rental", "capacity": "18", "name": "Gros-Chêne", "nom_festival": "Mythos" }, "geometry": { "type": "Point", "coordinates": [ -1.6642025, 48.1253717 ] } },
{ "type": "Feature", "properties": { "fid": 334, "addr:street": null, "amenity": "bicycle_rental", "capacity": "18", "name": "Gros-Chêne", "nom_festival": "Festival tnb" }, "geometry": { "type": "Point", "coordinates": [ -1.6642025, 48.1253717 ] } },
{ "type": "Feature", "properties": { "fid": 334, "addr:street": null, "amenity": "bicycle_rental", "capacity": "18", "name": "Gros-Chêne", "nom_festival": "Les tombees de la nuit" }, "geometry": { "type": "Point", "coordinates": [ -1.6642025, 48.1253717 ] } },
{ "type": "Feature", "properties": { "fid": 334, "addr:street": null, "amenity": "bicycle_rental", "capacity": "18", "name": "Gros-Chêne", "nom_festival": "I'm from rennes (site du thabord)" }, "geometry": { "type": "Point", "coordinates": [ -1.6642025, 48.1253717 ] } },
{ "type": "Feature", "properties": { "fid": 334, "addr:street": null, "amenity": "bicycle_rental", "capacity": "18", "name": "Gros-Chêne", "nom_festival": "Made festival" }, "geometry": { "type": "Point", "coordinates": [ -1.6642025, 48.1253717 ] } },
{ "type": "Feature", "properties": { "fid": 335, "addr:street": "Rue Guy Ropartz", "amenity": "bicycle_rental", "capacity": "30", "name": "Gayeulles Gast", "nom_festival": "Le grand soufflet" }, "geometry": { "type": "Point", "coordinates": [ -1.657469, 48.1294438 ] } },
{ "type": "Feature", "properties": { "fid": 335, "addr:street": "Rue Guy Ropartz", "amenity": "bicycle_rental", "capacity": "30", "name": "Gayeulles Gast", "nom_festival": "Marmaille" }, "geometry": { "type": "Point", "coordinates": [ -1.657469, 48.1294438 ] } },
{ "type": "Feature", "properties": { "fid": 335, "addr:street": "Rue Guy Ropartz", "amenity": "bicycle_rental", "capacity": "30", "name": "Gayeulles Gast", "nom_festival": "Rock'n solex" }, "geometry": { "type": "Point", "coordinates": [ -1.657469, 48.1294438 ] } },
{ "type": "Feature", "properties": { "fid": 335, "addr:street": "Rue Guy Ropartz", "amenity": "bicycle_rental", "capacity": "30", "name": "Gayeulles Gast", "nom_festival": "Festival rue des livres" }, "geometry": { "type": "Point", "coordinates": [ -1.657469, 48.1294438 ] } },
{ "type": "Feature", "properties": { "fid": 335, "addr:street": "Rue Guy Ropartz", "amenity": "bicycle_rental", "capacity": "30", "name": "Gayeulles Gast", "nom_festival": "Mythos" }, "geometry": { "type": "Point", "coordinates": [ -1.657469, 48.1294438 ] } },
{ "type": "Feature", "properties": { "fid": 335, "addr:street": "Rue Guy Ropartz", "amenity": "bicycle_rental", "capacity": "30", "name": "Gayeulles Gast", "nom_festival": "I'm from rennes (site du thabord)" }, "geometry": { "type": "Point", "coordinates": [ -1.657469, 48.1294438 ] } },
{ "type": "Feature", "properties": { "fid": 336, "addr:street": "Boulevard Léon Bourgeois", "amenity": "bicycle_rental", "capacity": "24", "name": "Bourgeois", "nom_festival": "Transat en ville" }, "geometry": { "type": "Point", "coordinates": [ -1.6552921, 48.0981147 ] } },
{ "type": "Feature", "properties": { "fid": 336, "addr:street": "Boulevard Léon Bourgeois", "amenity": "bicycle_rental", "capacity": "24", "name": "Bourgeois", "nom_festival": "Jardins d'hiver" }, "geometry": { "type": "Point", "coordinates": [ -1.6552921, 48.0981147 ] } },
{ "type": "Feature", "properties": { "fid": 336, "addr:street": "Boulevard Léon Bourgeois", "amenity": "bicycle_rental", "capacity": "24", "name": "Bourgeois", "nom_festival": "Dooinit festival" }, "geometry": { "type": "Point", "coordinates": [ -1.6552921, 48.0981147 ] } },
{ "type": "Feature", "properties": { "fid": 336, "addr:street": "Boulevard Léon Bourgeois", "amenity": "bicycle_rental", "capacity": "24", "name": "Bourgeois", "nom_festival": "Ballade avec brassens" }, "geometry": { "type": "Point", "coordinates": [ -1.6552921, 48.0981147 ] } },
{ "type": "Feature", "properties": { "fid": 336, "addr:street": "Boulevard Léon Bourgeois", "amenity": "bicycle_rental", "capacity": "24", "name": "Bourgeois", "nom_festival": "Mythos" }, "geometry": { "type": "Point", "coordinates": [ -1.6552921, 48.0981147 ] } },
{ "type": "Feature", "properties": { "fid": 336, "addr:street": "Boulevard Léon Bourgeois", "amenity": "bicycle_rental", "capacity": "24", "name": "Bourgeois", "nom_festival": "Festival tnb" }, "geometry": { "type": "Point", "coordinates": [ -1.6552921, 48.0981147 ] } },
{ "type": "Feature", "properties": { "fid": 336, "addr:street": "Boulevard Léon Bourgeois", "amenity": "bicycle_rental", "capacity": "24", "name": "Bourgeois", "nom_festival": "Les tombees de la nuit" }, "geometry": { "type": "Point", "coordinates": [ -1.6552921, 48.0981147 ] } },
{ "type": "Feature", "properties": { "fid": 337, "addr:street": "Rue Georges Charpak", "amenity": "bicycle_rental", "capacity": "24", "name": "Baud Chardonnet", "nom_festival": "Transat en ville" }, "geometry": { "type": "Point", "coordinates": [ -1.6476788, 48.1099526 ] } },
{ "type": "Feature", "properties": { "fid": 337, "addr:street": "Rue Georges Charpak", "amenity": "bicycle_rental", "capacity": "24", "name": "Baud Chardonnet", "nom_festival": "Marmaille" }, "geometry": { "type": "Point", "coordinates": [ -1.6476788, 48.1099526 ] } },
{ "type": "Feature", "properties": { "fid": 337, "addr:street": "Rue Georges Charpak", "amenity": "bicycle_rental", "capacity": "24", "name": "Baud Chardonnet", "nom_festival": "Dooinit festival" }, "geometry": { "type": "Point", "coordinates": [ -1.6476788, 48.1099526 ] } },
{ "type": "Feature", "properties": { "fid": 337, "addr:street": "Rue Georges Charpak", "amenity": "bicycle_rental", "capacity": "24", "name": "Baud Chardonnet", "nom_festival": "Ballade avec brassens" }, "geometry": { "type": "Point", "coordinates": [ -1.6476788, 48.1099526 ] } },
{ "type": "Feature", "properties": { "fid": 337, "addr:street": "Rue Georges Charpak", "amenity": "bicycle_rental", "capacity": "24", "name": "Baud Chardonnet", "nom_festival": "Rock'n solex" }, "geometry": { "type": "Point", "coordinates": [ -1.6476788, 48.1099526 ] } },
{ "type": "Feature", "properties": { "fid": 337, "addr:street": "Rue Georges Charpak", "amenity": "bicycle_rental", "capacity": "24", "name": "Baud Chardonnet", "nom_festival": "Mythos" }, "geometry": { "type": "Point", "coordinates": [ -1.6476788, 48.1099526 ] } },
{ "type": "Feature", "properties": { "fid": 337, "addr:street": "Rue Georges Charpak", "amenity": "bicycle_rental", "capacity": "24", "name": "Baud Chardonnet", "nom_festival": "Festival tnb" }, "geometry": { "type": "Point", "coordinates": [ -1.6476788, 48.1099526 ] } },
{ "type": "Feature", "properties": { "fid": 337, "addr:street": "Rue Georges Charpak", "amenity": "bicycle_rental", "capacity": "24", "name": "Baud Chardonnet", "nom_festival": "Les tombees de la nuit" }, "geometry": { "type": "Point", "coordinates": [ -1.6476788, 48.1099526 ] } },
{ "type": "Feature", "properties": { "fid": 340, "addr:street": "Boulevard Albert 1er", "amenity": "bicycle_rental", "capacity": "24", "name": "Bréquigny Piscine", "nom_festival": "Jazz à l'ouest" }, "geometry": { "type": "Point", "coordinates": [ -1.6903228, 48.0900213 ] } },
{ "type": "Feature", "properties": { "fid": 340, "addr:street": "Boulevard Albert 1er", "amenity": "bicycle_rental", "capacity": "24", "name": "Bréquigny Piscine", "nom_festival": "Les rencontres trans musicales de rennes" }, "geometry": { "type": "Point", "coordinates": [ -1.6903228, 48.0900213 ] } },
{ "type": "Feature", "properties": { "fid": 341, "addr:street": null, "amenity": "bicycle_rental", "capacity": "5", "name": "Fonds-Leclerc", "nom_festival": "Kann al loar" }, "geometry": { "type": "Point", "coordinates": [ -4.2538197, 48.4532216 ] } },
{ "type": "Feature", "properties": { "fid": 341, "addr:street": null, "amenity": "bicycle_rental", "capacity": "5", "name": "Fonds-Leclerc", "nom_festival": "Fete du bruit dans landerneau" }, "geometry": { "type": "Point", "coordinates": [ -4.2538197, 48.4532216 ] } },
{ "type": "Feature", "properties": { "fid": 342, "addr:street": null, "amenity": "bicycle_rental", "capacity": "10", "name": "Gare SNCF", "nom_festival": "Kann al loar" }, "geometry": { "type": "Point", "coordinates": [ -4.2564026, 48.4535778 ] } },
{ "type": "Feature", "properties": { "fid": 342, "addr:street": null, "amenity": "bicycle_rental", "capacity": "10", "name": "Gare SNCF", "nom_festival": "Fete du bruit dans landerneau" }, "geometry": { "type": "Point", "coordinates": [ -4.2564026, 48.4535778 ] } },
{ "type": "Feature", "properties": { "fid": 349, "addr:street": null, "amenity": "bicycle_rental", "capacity": "5", "name": "Kergreis Commerce", "nom_festival": "Fete du bruit dans landerneau" }, "geometry": { "type": "Point", "coordinates": [ -4.2776638, 48.4527105 ] } },
{ "type": "Feature", "properties": { "fid": 352, "addr:street": null, "amenity": "bicycle_rental", "capacity": null, "name": "Au cheval de fer", "nom_festival": "Belle ile on air" }, "geometry": { "type": "Point", "coordinates": [ -3.1597516, 47.3474263 ] } },
{ "type": "Feature", "properties": { "fid": 370, "addr:street": "Place de la Gare", "amenity": "bicycle_rental", "capacity": "50", "name": "Gares", "nom_festival": "Les rencontres trans musicales de rennes" }, "geometry": { "type": "Point", "coordinates": [ -1.6732741, 48.1042282 ] } },
{ "type": "Feature", "properties": { "fid": 370, "addr:street": "Place de la Gare", "amenity": "bicycle_rental", "capacity": "50", "name": "Gares", "nom_festival": "Transat en ville" }, "geometry": { "type": "Point", "coordinates": [ -1.6732741, 48.1042282 ] } },
{ "type": "Feature", "properties": { "fid": 370, "addr:street": "Place de la Gare", "amenity": "bicycle_rental", "capacity": "50", "name": "Gares", "nom_festival": "Jardins d'hiver" }, "geometry": { "type": "Point", "coordinates": [ -1.6732741, 48.1042282 ] } },
{ "type": "Feature", "properties": { "fid": 370, "addr:street": "Place de la Gare", "amenity": "bicycle_rental", "capacity": "50", "name": "Gares", "nom_festival": "Le grand soufflet" }, "geometry": { "type": "Point", "coordinates": [ -1.6732741, 48.1042282 ] } },
{ "type": "Feature", "properties": { "fid": 370, "addr:street": "Place de la Gare", "amenity": "bicycle_rental", "capacity": "50", "name": "Gares", "nom_festival": "Mythos" }, "geometry": { "type": "Point", "coordinates": [ -1.6732741, 48.1042282 ] } },
{ "type": "Feature", "properties": { "fid": 370, "addr:street": "Place de la Gare", "amenity": "bicycle_rental", "capacity": "50", "name": "Gares", "nom_festival": "Festival tnb" }, "geometry": { "type": "Point", "coordinates": [ -1.6732741, 48.1042282 ] } },
{ "type": "Feature", "properties": { "fid": 370, "addr:street": "Place de la Gare", "amenity": "bicycle_rental", "capacity": "50", "name": "Gares", "nom_festival": "Les tombees de la nuit" }, "geometry": { "type": "Point", "coordinates": [ -1.6732741, 48.1042282 ] } },
{ "type": "Feature", "properties": { "fid": 370, "addr:street": "Place de la Gare", "amenity": "bicycle_rental", "capacity": "50", "name": "Gares", "nom_festival": "I'm from rennes (site du thabord)" }, "geometry": { "type": "Point", "coordinates": [ -1.6732741, 48.1042282 ] } },
{ "type": "Feature", "properties": { "fid": 370, "addr:street": "Place de la Gare", "amenity": "bicycle_rental", "capacity": "50", "name": "Gares", "nom_festival": "Made festival" }, "geometry": { "type": "Point", "coordinates": [ -1.6732741, 48.1042282 ] } },
{ "type": "Feature", "properties": { "fid": 373, "addr:street": "Rue Bouruet-Aubertot", "amenity": "bicycle_rental", "capacity": null, "name": "A vélo Morbihan", "nom_festival": "Algues au rythme" }, "geometry": { "type": "Point", "coordinates": [ -2.8226552, 47.6282109 ] } },
{ "type": "Feature", "properties": { "fid": 381, "addr:street": null, "amenity": "bicycle_rental", "capacity": "12", "name": null, "nom_festival": "Algues au rythme" }, "geometry": { "type": "Point", "coordinates": [ -2.8221595, 47.6271974 ] } },
{ "type": "Feature", "properties": { "fid": 386, "addr:street": null, "amenity": "bicycle_rental", "capacity": "5", "name": "Belhommet", "nom_festival": "Kann al loar" }, "geometry": { "type": "Point", "coordinates": [ -4.2445835, 48.4489097 ] } },
{ "type": "Feature", "properties": { "fid": 386, "addr:street": null, "amenity": "bicycle_rental", "capacity": "5", "name": "Belhommet", "nom_festival": "Fete du bruit dans landerneau" }, "geometry": { "type": "Point", "coordinates": [ -4.2445835, 48.4489097 ] } },
{ "type": "Feature", "properties": { "fid": 388, "addr:street": null, "amenity": "bicycle_rental", "capacity": "15", "name": "Aqualorn", "nom_festival": "Kann al loar" }, "geometry": { "type": "Point", "coordinates": [ -4.2606308, 48.444505 ] } },
{ "type": "Feature", "properties": { "fid": 388, "addr:street": null, "amenity": "bicycle_rental", "capacity": "15", "name": "Aqualorn", "nom_festival": "Fete du bruit dans landerneau" }, "geometry": { "type": "Point", "coordinates": [ -4.2606308, 48.444505 ] } },
{ "type": "Feature", "properties": { "fid": 389, "addr:street": null, "amenity": "bicycle_rental", "capacity": "15", "name": "Quai de Léon", "nom_festival": "Kann al loar" }, "geometry": { "type": "Point", "coordinates": [ -4.252036, 48.4492904 ] } },
{ "type": "Feature", "properties": { "fid": 389, "addr:street": null, "amenity": "bicycle_rental", "capacity": "15", "name": "Quai de Léon", "nom_festival": "Fete du bruit dans landerneau" }, "geometry": { "type": "Point", "coordinates": [ -4.252036, 48.4492904 ] } },
{ "type": "Feature", "properties": { "fid": 403, "addr:street": null, "amenity": "bicycle_rental", "capacity": null, "name": "Base de kayak", "nom_festival": "Kann al loar" }, "geometry": { "type": "Point", "coordinates": [ -4.2404131, 48.4571005 ] } },
{ "type": "Feature", "properties": { "fid": 403, "addr:street": null, "amenity": "bicycle_rental", "capacity": null, "name": "Base de kayak", "nom_festival": "Fete du bruit dans landerneau" }, "geometry": { "type": "Point", "coordinates": [ -4.2404131, 48.4571005 ] } }
]
}
